; Generated by Scott Protocol (O(n) Efficiency)
M104 S215 ; Set Nozzle
M140 S60 ; Set Bed
G28 ; Home All
M109 S{self.NOZZLE_TEMP} ; Wait for Temp
G92 E0 ; Reset Extruder
; --- LAYER 1 : Z=0.4016mm (Phi-Locked) ---
G1 Z0.4016 F9000
G1 X110.000 Y110.000 E0.5000 F6000
G1 X120.000 Y115.000 E1.0000 F6000
G1 X150.000 Y115.000 E1.5000 F6000
G1 X160.000 Y125.000 E2.0000 F6000
G1 X160.000 Y145.000 E2.5000 F6000
G1 X150.000 Y155.000 E3.0000 F6000
G1 X120.000 Y155.000 E3.5000 F6000
G1 X110.000 Y145.000 E4.0000 F6000
; --- LAYER 2 : Z=0.6046mm (Phi-Locked) ---
G1 Z0.6046 F9000
G1 X110.000 Y110.000 E4.5000 F6000
G1 X99.249 Y113.070 E5.0000 F6000
G1 X77.131 Y133.337 E5.5000 F6000
G1 X63.002 Y132.720 E6.0000 F6000
G1 X49.490 Y117.975 E6.5000 F6000
G1 X50.107 Y103.846 E7.0000 F6000
G1 X72.226 Y83.578 E7.5000 F6000
G1 X86.354 Y84.195 E8.0000 F6000
; --- LAYER 3 : Z=0.8088mm (Phi-Locked) ---
G1 Z0.8088 F9000
G1 X110.000 Y110.000 E8.5000 F6000
G1 X115.853 Y100.474 E9.0000 F6000
G1 X118.467 Y70.588 E9.5000 F6000
G1 X129.301 Y61.498 E10.0000 F6000
G1 X149.225 Y63.241 E10.5000 F6000
G1 X158.315 Y74.074 E11.0000 F6000
G1 X155.700 Y103.960 E11.5000 F6000
G1 X144.867 Y113.050 E12.0000 F6000
; --- LAYER 4 : Z=1.0136mm (Phi-Locked) ---
G1 Z1.0136 F9000
G1 X110.000 Y110.000 E12.5000 F6000
G1 X112.121 Y120.977 E13.0000 F6000
G1 X130.384 Y144.778 E13.5000 F6000
G1 X128.538 Y158.799 E14.0000 F6000
G1 X112.671 Y170.974 E14.5000 F6000
G1 X98.650 Y169.128 E15.0000 F6000
G1 X80.387 Y145.328 E15.5000 F6000
G1 X82.233 Y131.307 E16.0000 F6000
; --- LAYER 5 : Z=1.2186mm (Phi-Locked) ---
G1 Z1.2186 F9000
G1 X110.000 Y110.000 E16.5000 F6000
G1 X101.020 Y103.339 E17.0000 F6000
G1 X71.476 Y98.130 E17.5000 F6000
G1 X63.364 Y86.545 E18.0000 F6000
G1 X66.837 Y66.849 E18.5000 F6000
G1 X78.422 Y58.738 E19.0000 F6000
G1 X107.966 Y63.947 E19.5000 F6000
G1 X116.078 Y75.532 E20.0000 F6000
; --- LAYER 6 : Z=1.4232mm (Phi-Locked) ---
G1 Z1.4232 F9000
G1 X110.000 Y110.000 E20.5000 F6000
G1 X121.120 Y108.844 E21.0000 F6000
G1 X146.422 Y92.725 E21.5000 F6000
G1 X160.229 Y95.786 E22.0000 F6000
G1 X170.975 Y112.654 E22.5000 F6000
G1 X167.914 Y126.461 E23.0000 F6000
G1 X142.612 Y142.580 E23.5000 F6000
G1 X128.805 Y139.519 E24.0000 F6000
; --- LAYER 7 : Z=1.6269mm (Phi-Locked) ---
G1 Z1.6269 F9000
G1 X110.000 Y110.000 E24.5000 F6000
G1 X102.582 Y118.365 E25.0000 F6000
G1 X94.818 Y147.343 E25.5000 F6000
G1 X82.570 Y154.414 E26.0000 F6000
G1 X63.252 Y149.238 E26.5000 F6000
G1 X56.181 Y136.990 E27.0000 F6000
G1 X63.945 Y108.012 E27.5000 F6000
G1 X76.193 Y100.941 E28.0000 F6000
; --- LAYER 8 : Z=1.8293mm (Phi-Locked) ---
G1 Z1.8293 F9000
G1 X110.000 Y110.000 E28.5000 F6000
G1 X109.818 Y98.821 E29.0000 F6000
G1 X95.965 Y72.211 E29.5000 F6000
G1 X100.218 Y58.723 E30.0000 F6000
G1 X117.958 Y49.488 E30.5000 F6000
G1 X131.446 Y53.741 E31.0000 F6000
G1 X145.298 Y80.351 E31.5000 F6000
G1 X141.045 Y93.839 E32.0000 F6000
; --- LAYER 9 : Z=2.0302mm (Phi-Locked) ---
G1 Z2.0302 F9000
G1 X110.000 Y110.000 E32.5000 F6000
G1 X117.687 Y118.119 E33.0000 F6000
G1 X145.878 Y128.379 E33.5000 F6000
G1 X151.854 Y141.196 E34.0000 F6000
G1 X145.014 Y159.990 E34.5000 F6000
G1 X132.197 Y165.967 E35.0000 F6000
G1 X104.006 Y155.706 E35.5000 F6000
G1 X98.029 Y142.889 E36.0000 F6000
; --- LAYER 10 : Z=2.2295mm (Phi-Locked) ---
G1 Z2.2295 F9000
G1 X110.000 Y110.000 E36.5000 F6000
G1 X98.848 Y109.207 E37.0000 F6000
G1 X71.131 Y120.688 E37.5000 F6000
G1 X58.066 Y115.276 E38.0000 F6000
G1 X50.412 Y96.798 E38.5000 F6000
G1 X55.824 Y83.733 E39.0000 F6000
G1 X83.540 Y72.252 E39.5000 F6000
G1 X96.606 Y77.664 E40.0000 F6000
; --- LAYER 11 : Z=2.4273mm (Phi-Locked) ---
G1 Z2.4273 F9000
G1 X110.000 Y110.000 E40.5000 F6000
G1 X118.758 Y103.050 E41.0000 F6000
G1 X131.436 Y75.861 E41.5000 F6000
G1 X144.726 Y71.024 E42.0000 F6000
G1 X162.852 Y79.476 E42.5000 F6000
G1 X167.689 Y92.766 E43.0000 F6000
G1 X155.010 Y119.955 E43.5000 F6000
G1 X141.721 Y124.792 E44.0000 F6000
; --- LAYER 12 : Z=2.6237mm (Phi-Locked) ---
G1 Z2.6237 F9000
G1 X110.000 Y110.000 E44.5000 F6000
G1 X108.238 Y121.041 E45.0000 F6000
G1 X117.260 Y149.652 E45.5000 F6000
G1 X110.730 Y162.196 E46.0000 F6000
G1 X91.655 Y168.211 E46.5000 F6000
G1 X79.111 Y161.680 E47.0000 F6000
G1 X70.090 Y133.069 E47.5000 F6000
G1 X76.620 Y120.525 E48.0000 F6000
; --- LAYER 13 : Z=2.8193mm (Phi-Locked) ---
G1 Z2.8193 F9000
G1 X110.000 Y110.000 E48.5000 F6000
G1 X103.840 Y100.670 E49.0000 F6000
G1 X77.859 Y85.670 E49.5000 F6000
G1 X74.199 Y72.010 E50.0000 F6000
G1 X84.199 Y54.689 E50.5000 F6000
G1 X97.859 Y51.029 E51.0000 F6000
G1 X123.840 Y66.029 E51.5000 F6000
G1 X127.500 Y79.689 E52.0000 F6000
; --- LAYER 14 : Z=3.0143mm (Phi-Locked) ---
G1 Z3.0143 F9000
G1 X110.000 Y110.000 E52.5000 F6000
G1 X120.845 Y112.717 E53.0000 F6000
G1 X150.134 Y106.224 E53.5000 F6000
G1 X162.061 Y113.822 E54.0000 F6000
G1 X166.390 Y133.348 E54.5000 F6000
G1 X158.792 Y145.276 E55.0000 F6000
G1 X129.503 Y151.769 E55.5000 F6000
G1 X117.575 Y144.170 E56.0000 F6000
; --- LAYER 15 : Z=3.2094mm (Phi-Locked) ---
G1 Z3.2094 F9000
G1 X110.000 Y110.000 E56.5000 F6000
G1 X100.168 Y115.324 E57.0000 F6000
G1 X82.961 Y139.898 E57.5000 F6000
G1 X69.034 Y142.354 E58.0000 F6000
G1 X52.651 Y130.882 E58.5000 F6000
G1 X50.195 Y116.955 E59.0000 F6000
G1 X67.402 Y92.381 E59.5000 F6000
G1 X81.330 Y89.925 E60.0000 F6000
; --- LAYER 16 : Z=3.405mm (Phi-Locked) ---
G1 Z3.405 F9000
G1 X110.000 Y110.000 E60.5000 F6000
G1 X113.652 Y99.433 E61.0000 F6000
G1 X109.736 Y69.690 E61.5000 F6000
G1 X118.345 Y58.470 E62.0000 F6000
G1 X138.174 Y55.859 E62.5000 F6000
G1 X149.394 Y64.469 E63.0000 F6000
G1 X153.310 Y94.212 E63.5000 F6000
G1 X144.701 Y105.432 E64.0000 F6000
; --- LAYER 17 : Z=3.6015mm (Phi-Locked) ---
G1 Z3.6015 F9000
G1 X110.000 Y110.000 E64.5000 F6000
G1 X114.447 Y120.258 E65.0000 F6000
G1 X137.428 Y139.542 E65.5000 F6000
G1 X138.660 Y153.630 E66.0000 F6000
G1 X125.805 Y168.951 E66.5000 F6000
G1 X111.716 Y170.184 E67.0000 F6000
G1 X88.735 Y150.900 E67.5000 F6000
G1 X87.502 Y136.812 E68.0000 F6000
; --- LAYER 18 : Z=3.7993mm (Phi-Locked) ---
G1 Z3.7993 F9000
G1 X110.000 Y110.000 E68.5000 F6000
G1 X99.791 Y105.441 E69.0000 F6000
G1 X69.820 Y106.750 E69.5000 F6000
G1 X59.393 Y97.195 E70.0000 F6000
G1 X58.521 Y77.214 E70.5000 F6000
G1 X68.075 Y66.788 E71.0000 F6000
G1 X98.047 Y65.479 E71.5000 F6000
G1 X108.473 Y75.033 E72.0000 F6000
; --- LAYER 19 : Z=3.9986mm (Phi-Locked) ---
G1 Z3.9986 F9000
G1 X110.000 Y110.000 E72.5000 F6000
G1 X120.607 Y106.464 E73.0000 F6000
G1 X141.820 Y85.251 E73.5000 F6000
G1 X155.962 Y85.251 E74.0000 F6000
G1 X170.104 Y99.393 E74.5000 F6000
G1 X170.104 Y113.536 E75.0000 F6000
G1 X148.891 Y134.749 E75.5000 F6000
G1 X134.749 Y134.749 E76.0000 F6000
; --- LAYER 20 : Z=4.1995mm (Phi-Locked) ---
G1 Z4.1995 F9000
G1 X110.000 Y110.000 E76.5000 F6000
G1 X104.569 Y119.772 E77.0000 F6000
G1 X103.260 Y149.744 E77.5000 F6000
G1 X92.833 Y159.298 E78.0000 F6000
G1 X72.852 Y158.426 E78.5000 F6000
G1 X63.298 Y147.999 E79.0000 F6000
G1 X64.607 Y118.028 E79.5000 F6000
G1 X75.033 Y108.473 E80.0000 F6000
; --- LAYER 21 : Z=4.402mm (Phi-Locked) ---
G1 Z4.402 F9000
G1 X110.000 Y110.000 E80.5000 F6000
G1 X107.402 Y99.126 E81.0000 F6000
G1 X88.119 Y76.144 E81.5000 F6000
G1 X89.351 Y62.056 E82.0000 F6000
G1 X104.672 Y49.200 E82.5000 F6000
G1 X118.760 Y50.433 E83.0000 F6000
G1 X138.044 Y73.414 E83.5000 F6000
G1 X136.812 Y87.502 E84.0000 F6000
; --- LAYER 22 : Z=4.6057mm (Phi-Locked) ---
G1 Z4.6057 F9000
G1 X110.000 Y110.000 E84.5000 F6000
G1 X119.262 Y116.262 E85.0000 F6000
G1 X149.005 Y120.178 E85.5000 F6000
G1 X157.614 Y131.398 E86.0000 F6000
G1 X155.004 Y151.227 E86.5000 F6000
G1 X143.784 Y159.836 E87.0000 F6000
G1 X114.041 Y155.920 E87.5000 F6000
G1 X105.432 Y144.701 E88.0000 F6000
; --- LAYER 23 : Z=4.8103mm (Phi-Locked) ---
G1 Z4.8103 F9000
G1 X110.000 Y110.000 E88.5000 F6000
G1 X98.941 Y111.640 E89.0000 F6000
G1 X74.366 Y128.847 E89.5000 F6000
G1 X60.439 Y126.392 E90.0000 F6000
G1 X48.967 Y110.009 E90.5000 F6000
G1 X51.423 Y96.081 E91.0000 F6000
G1 X75.998 Y78.874 E91.5000 F6000
G1 X89.925 Y81.330 E92.0000 F6000
; --- LAYER 24 : Z=5.0153mm (Phi-Locked) ---
G1 Z5.0153 F9000
G1 X110.000 Y110.000 E92.5000 F6000
G1 X117.046 Y101.319 E93.0000 F6000
G1 X123.539 Y72.030 E93.5000 F6000
G1 X135.466 Y64.432 E94.0000 F6000
G1 X154.992 Y68.761 E94.5000 F6000
G1 X162.591 Y80.688 E95.0000 F6000
G1 X156.098 Y109.977 E95.5000 F6000
G1 X144.170 Y117.575 E96.0000 F6000
; --- LAYER 25 : Z=5.2201mm (Phi-Locked) ---
G1 Z5.2201 F9000
G1 X110.000 Y110.000 E96.5000 F6000
G1 X110.670 Y121.160 E97.0000 F6000
G1 X125.670 Y147.141 E97.5000 F6000
G1 X122.010 Y160.801 E98.0000 F6000
G1 X104.689 Y170.801 E98.5000 F6000
G1 X91.029 Y167.141 E99.0000 F6000
G1 X76.029 Y141.160 E99.5000 F6000
G1 X79.689 Y127.500 E100.0000 F6000
; --- LAYER 26 : Z=5.4243mm (Phi-Locked) ---
G1 Z5.4243 F9000
G1 X110.000 Y110.000 E100.5000 F6000
G1 X101.966 Y102.224 E101.0000 F6000
G1 X73.355 Y93.203 E101.5000 F6000
G1 X66.825 Y80.659 E102.0000 F6000
G1 X72.839 Y61.585 E102.5000 F6000
G1 X85.383 Y55.055 E103.0000 F6000
G1 X113.995 Y64.076 E103.5000 F6000
G1 X120.525 Y76.620 E104.0000 F6000
; --- LAYER 27 : Z=5.6273mm (Phi-Locked) ---
G1 Z5.6273 F9000
G1 X110.000 Y110.000 E104.5000 F6000
G1 X121.176 Y110.305 E105.0000 F6000
G1 X148.365 Y97.627 E105.5000 F6000
G1 X161.655 Y102.464 E106.0000 F6000
G1 X170.107 Y120.590 E106.5000 F6000
G1 X165.270 Y133.879 E107.0000 F6000
G1 X138.081 Y146.558 E107.5000 F6000
G1 X124.792 Y141.721 E108.0000 F6000
; --- LAYER 28 : Z=5.8289mm (Phi-Locked) ---
G1 Z5.8289 F9000
G1 X110.000 Y110.000 E108.5000 F6000
G1 X101.554 Y117.325 E109.0000 F6000
G1 X90.073 Y145.042 E109.5000 F6000
G1 X77.008 Y150.454 E110.0000 F6000
G1 X58.530 Y142.800 E110.5000 F6000
G1 X53.118 Y129.734 E111.0000 F6000
G1 X64.599 Y102.018 E111.5000 F6000
G1 X77.664 Y96.606 E112.0000 F6000
; --- LAYER 29 : Z=6.0288mm (Phi-Locked) ---
G1 Z6.0288 F9000
G1 X110.000 Y110.000 E112.5000 F6000
G1 X111.278 Y98.893 E113.0000 F6000
G1 X101.018 Y70.702 E113.5000 F6000
G1 X106.994 Y57.885 E114.0000 F6000
G1 X125.788 Y51.045 E114.5000 F6000
G1 X138.605 Y57.021 E115.0000 F6000
G1 X148.866 Y85.212 E115.5000 F6000
G1 X142.889 Y98.029 E116.0000 F6000
; --- LAYER 30 : Z=6.2272mm (Phi-Locked) ---
G1 Z6.2272 F9000
G1 X110.000 Y110.000 E116.5000 F6000
G1 X116.561 Y119.053 E117.0000 F6000
G1 X143.172 Y132.905 E117.5000 F6000
G1 X147.424 Y146.393 E118.0000 F6000
G1 X138.189 Y164.133 E118.5000 F6000
G1 X124.702 Y168.385 E119.0000 F6000
G1 X98.091 Y154.533 E119.5000 F6000
G1 X93.839 Y141.045 E120.0000 F6000
; --- LAYER 31 : Z=6.4242mm (Phi-Locked) ---
G1 Z6.4242 F9000
G1 X110.000 Y110.000 E120.5000 F6000
G1 X99.047 Y107.759 E121.0000 F6000
G1 X70.069 Y115.523 E121.5000 F6000
G1 X57.821 Y108.452 E122.0000 F6000
G1 X52.645 Y89.134 E122.5000 F6000
G1 X59.716 Y76.886 E123.0000 F6000
G1 X88.694 Y69.122 E123.5000 F6000
G1 X100.941 Y76.193 E124.0000 F6000
; --- LAYER 32 : Z=6.62mm (Phi-Locked) ---
G1 Z6.62 F9000
G1 X110.000 Y110.000 E124.5000 F6000
G1 X119.590 Y104.253 E125.0000 F6000
G1 X135.709 Y78.951 E125.5000 F6000
G1 X149.516 Y75.890 E126.0000 F6000
G1 X166.384 Y86.636 E126.5000 F6000
G1 X169.445 Y100.443 E127.0000 F6000
G1 X153.326 Y125.745 E127.5000 F6000
G1 X139.519 Y128.805 E128.0000 F6000
; --- LAYER 33 : Z=6.8152mm (Phi-Locked) ---
G1 Z6.8152 F9000
G1 X110.000 Y110.000 E128.5000 F6000
G1 X106.812 Y120.716 E129.0000 F6000
G1 X112.022 Y150.261 E129.5000 F6000
G1 X103.910 Y161.845 E130.0000 F6000
G1 X84.214 Y165.318 E130.5000 F6000
G1 X72.630 Y157.206 E131.0000 F6000
G1 X67.420 Y127.662 E131.5000 F6000
G1 X75.532 Y116.078 E132.0000 F6000
; --- LAYER 34 : Z=7.0103mm (Phi-Locked) ---
G1 Z7.0103 F9000
G1 X110.000 Y110.000 E132.5000 F6000
G1 X105.110 Y99.946 E133.0000 F6000
G1 X81.310 Y81.683 E133.5000 F6000
G1 X79.464 Y67.662 E134.0000 F6000
G1 X91.639 Y51.795 E134.5000 F6000
G1 X105.660 Y49.949 E135.0000 F6000
G1 X129.461 Y68.211 E135.5000 F6000
G1 X131.307 Y82.233 E136.0000 F6000
; --- LAYER 35 : Z=7.2055mm (Phi-Locked) ---
G1 Z7.2055 F9000
G1 X110.000 Y110.000 E136.5000 F6000
G1 X120.398 Y114.109 E137.0000 F6000
G1 X150.284 Y111.495 E137.5000 F6000
G1 X161.117 Y120.585 E138.0000 F6000
G1 X162.860 Y140.509 E138.5000 F6000
G1 X153.770 Y151.343 E139.0000 F6000
G1 X123.884 Y153.957 E139.5000 F6000
G1 X113.050 Y144.867 E140.0000 F6000
; --- LAYER 36 : Z=7.4016mm (Phi-Locked) ---
G1 Z7.4016 F9000
G1 X110.000 Y110.000 E140.5000 F6000
G1 X99.558 Y113.995 E141.0000 F6000
G1 X79.290 Y136.113 E141.5000 F6000
G1 X65.161 Y136.730 E142.0000 F6000
G1 X50.416 Y123.218 E142.5000 F6000
G1 X49.799 Y109.090 E143.0000 F6000
G1 X70.067 Y86.971 E143.5000 F6000
G1 X84.195 Y86.354 E144.0000 F6000
; --- LAYER 37 : Z=7.5988mm (Phi-Locked) ---
G1 Z7.5988 F9000
G1 X110.000 Y110.000 E144.5000 F6000
G1 X115.000 Y100.000 E145.0000 F6000
G1 X115.000 Y70.000 E145.5000 F6000
G1 X125.000 Y60.000 E146.0000 F6000
G1 X145.000 Y60.000 E146.5000 F6000
G1 X155.000 Y70.000 E147.0000 F6000
G1 X155.000 Y100.000 E147.5000 F6000
G1 X145.000 Y110.000 E148.0000 F6000
; --- LAYER 38 : Z=7.7975mm (Phi-Locked) ---
G1 Z7.7975 F9000
G1 X110.000 Y110.000 E148.5000 F6000
G1 X113.070 Y120.751 E149.0000 F6000
G1 X133.337 Y142.869 E149.5000 F6000
G1 X132.720 Y156.998 E150.0000 F6000
G1 X117.975 Y170.510 E150.5000 F6000
G1 X103.846 Y169.893 E151.0000 F6000
G1 X83.578 Y147.774 E151.5000 F6000
G1 X84.195 Y133.646 E152.0000 F6000
; --- LAYER 39 : Z=7.9977mm (Phi-Locked) ---
G1 Z7.9977 F9000
G1 X110.000 Y110.000 E152.5000 F6000
G1 X100.474 Y104.147 E153.0000 F6000
G1 X70.588 Y101.533 E153.5000 F6000
G1 X61.498 Y90.699 E154.0000 F6000
G1 X63.241 Y70.775 E154.5000 F6000
G1 X74.074 Y61.685 E155.0000 F6000
G1 X103.960 Y64.300 E155.5000 F6000
G1 X113.050 Y75.133 E156.0000 F6000
; --- LAYER 40 : Z=8.1996mm (Phi-Locked) ---
G1 Z8.1996 F9000
G1 X110.000 Y110.000 E156.5000 F6000
G1 X120.977 Y107.879 E157.0000 F6000
G1 X144.778 Y89.616 E157.5000 F6000
G1 X158.799 Y91.462 E158.0000 F6000
G1 X170.974 Y107.329 E158.5000 F6000
G1 X169.128 Y121.350 E159.0000 F6000
G1 X145.328 Y139.613 E159.5000 F6000
G1 X131.307 Y137.767 E160.0000 F6000
; --- LAYER 41 : Z=8.4028mm (Phi-Locked) ---
G1 Z8.4028 F9000
G1 X110.000 Y110.000 E160.5000 F6000
G1 X103.339 Y118.980 E161.0000 F6000
G1 X98.130 Y148.524 E161.5000 F6000
G1 X86.545 Y156.636 E162.0000 F6000
G1 X66.849 Y153.163 E162.5000 F6000
G1 X58.738 Y141.578 E163.0000 F6000
G1 X63.947 Y112.034 E163.5000 F6000
G1 X75.532 Y103.922 E164.0000 F6000
; --- LAYER 42 : Z=8.6071mm (Phi-Locked) ---
G1 Z8.6071 F9000
G1 X110.000 Y110.000 E164.5000 F6000
G1 X108.844 Y98.880 E165.0000 F6000
G1 X92.725 Y73.578 E165.5000 F6000
G1 X95.786 Y59.771 E166.0000 F6000
G1 X112.654 Y49.025 E166.5000 F6000
G1 X126.461 Y52.086 E167.0000 F6000
G1 X142.580 Y77.388 E167.5000 F6000
G1 X139.519 Y91.195 E168.0000 F6000
; --- LAYER 43 : Z=8.812mm (Phi-Locked) ---
G1 Z8.812 F9000
G1 X110.000 Y110.000 E168.5000 F6000
G1 X118.365 Y117.418 E169.0000 F6000
G1 X147.343 Y125.182 E169.5000 F6000
G1 X154.414 Y137.430 E170.0000 F6000
G1 X149.238 Y156.748 E170.5000 F6000
G1 X136.990 Y163.819 E171.0000 F6000
G1 X108.012 Y156.055 E171.5000 F6000
G1 X100.941 Y143.807 E172.0000 F6000
; --- LAYER 44 : Z=9.0169mm (Phi-Locked) ---
G1 Z9.0169 F9000
G1 X110.000 Y110.000 E172.5000 F6000
G1 X98.821 Y110.182 E173.0000 F6000
G1 X72.211 Y124.035 E173.5000 F6000
G1 X58.723 Y119.782 E174.0000 F6000
G1 X49.488 Y102.042 E174.5000 F6000
G1 X53.741 Y88.554 E175.0000 F6000
G1 X80.351 Y74.702 E175.5000 F6000
G1 X93.839 Y78.955 E176.0000 F6000
; --- LAYER 45 : Z=9.2214mm (Phi-Locked) ---
G1 Z9.2214 F9000
G1 X110.000 Y110.000 E176.5000 F6000
G1 X118.119 Y102.313 E177.0000 F6000
G1 X128.379 Y74.122 E177.5000 F6000
G1 X141.196 Y68.146 E178.0000 F6000
G1 X159.990 Y74.986 E178.5000 F6000
G1 X165.967 Y87.803 E179.0000 F6000
G1 X155.706 Y115.994 E179.5000 F6000
G1 X142.889 Y121.971 E180.0000 F6000
; --- LAYER 46 : Z=9.425mm (Phi-Locked) ---
G1 Z9.425 F9000
G1 X110.000 Y110.000 E180.5000 F6000
G1 X109.207 Y121.152 E181.0000 F6000
G1 X120.688 Y148.869 E181.5000 F6000
G1 X115.276 Y161.934 E182.0000 F6000
G1 X96.798 Y169.588 E182.5000 F6000
G1 X83.733 Y164.176 E183.0000 F6000
G1 X72.252 Y136.460 E183.5000 F6000
G1 X77.664 Y123.394 E184.0000 F6000
; --- LAYER 47 : Z=9.6272mm (Phi-Locked) ---
G1 Z9.6272 F9000
G1 X110.000 Y110.000 E184.5000 F6000
G1 X103.050 Y101.242 E185.0000 F6000
G1 X75.861 Y88.564 E185.5000 F6000
G1 X71.024 Y75.274 E186.0000 F6000
G1 X79.476 Y57.148 E186.5000 F6000
G1 X92.766 Y52.311 E187.0000 F6000
G1 X119.955 Y64.990 E187.5000 F6000
G1 X124.792 Y78.279 E188.0000 F6000
; --- LAYER 48 : Z=9.8278mm (Phi-Locked) ---
G1 Z9.8278 F9000
G1 X110.000 Y110.000 E188.5000 F6000
G1 X121.041 Y111.762 E189.0000 F6000
G1 X149.652 Y102.740 E189.5000 F6000
G1 X162.196 Y109.270 E190.0000 F6000
G1 X168.211 Y128.345 E190.5000 F6000
G1 X161.680 Y140.889 E191.0000 F6000
G1 X133.069 Y149.910 E191.5000 F6000
G1 X120.525 Y143.380 E192.0000 F6000
; --- LAYER 49 : Z=10.0269mm (Phi-Locked) ---
G1 Z10.0269 F9000
G1 X110.000 Y110.000 E192.5000 F6000
G1 X100.670 Y116.160 E193.0000 F6000
G1 X85.670 Y142.141 E193.5000 F6000
G1 X72.010 Y145.801 E194.0000 F6000
G1 X54.689 Y135.801 E194.5000 F6000
G1 X51.029 Y122.141 E195.0000 F6000
G1 X66.029 Y96.160 E195.5000 F6000
G1 X79.689 Y92.500 E196.0000 F6000
; --- LAYER 50 : Z=10.2244mm (Phi-Locked) ---
G1 Z10.2244 F9000
G1 X110.000 Y110.000 E196.5000 F6000
G1 X112.717 Y99.155 E197.0000 F6000
G1 X106.224 Y69.866 E197.5000 F6000
G1 X113.822 Y57.939 E198.0000 F6000
G1 X133.348 Y53.610 E198.5000 F6000
G1 X145.276 Y61.208 E199.0000 F6000
G1 X151.769 Y90.497 E199.5000 F6000
G1 X144.170 Y102.425 E200.0000 F6000
; --- LAYER 51 : Z=10.4207mm (Phi-Locked) ---
G1 Z10.4207 F9000
G1 X110.000 Y110.000 E200.5000 F6000
G1 X115.324 Y119.832 E201.0000 F6000
G1 X139.898 Y137.039 E201.5000 F6000
G1 X142.354 Y150.966 E202.0000 F6000
G1 X130.882 Y167.349 E202.5000 F6000
G1 X116.955 Y169.805 E203.0000 F6000
G1 X92.381 Y152.598 E203.5000 F6000
G1 X89.925 Y138.670 E204.0000 F6000
; --- LAYER 52 : Z=10.6161mm (Phi-Locked) ---
G1 Z10.6161 F9000
G1 X110.000 Y110.000 E204.5000 F6000
G1 X99.433 Y106.348 E205.0000 F6000
G1 X69.690 Y110.264 E205.5000 F6000
G1 X58.470 Y101.655 E206.0000 F6000
G1 X55.859 Y81.826 E206.5000 F6000
G1 X64.469 Y70.606 E207.0000 F6000
G1 X94.212 Y66.690 E207.5000 F6000
G1 X105.432 Y75.299 E208.0000 F6000
; --- LAYER 53 : Z=10.8111mm (Phi-Locked) ---
G1 Z10.8111 F9000
G1 X110.000 Y110.000 E208.5000 F6000
G1 X120.258 Y105.553 E209.0000 F6000
G1 X139.542 Y82.572 E209.5000 F6000
G1 X153.630 Y81.340 E210.0000 F6000
G1 X168.951 Y94.195 E210.5000 F6000
G1 X170.184 Y108.284 E211.0000 F6000
G1 X150.900 Y131.265 E211.5000 F6000
G1 X136.812 Y132.498 E212.0000 F6000
; --- LAYER 54 : Z=11.0063mm (Phi-Locked) ---
G1 Z11.0063 F9000
G1 X110.000 Y110.000 E212.5000 F6000
G1 X105.441 Y120.209 E213.0000 F6000
G1 X106.750 Y150.180 E213.5000 F6000
G1 X97.195 Y160.607 E214.0000 F6000
G1 X77.214 Y161.479 E214.5000 F6000
G1 X66.788 Y151.925 E215.0000 F6000
G1 X65.479 Y121.953 E215.5000 F6000
G1 X75.033 Y111.527 E216.0000 F6000
; --- LAYER 55 : Z=11.2019mm (Phi-Locked) ---
G1 Z11.2019 F9000
G1 X110.000 Y110.000 E216.5000 F6000
G1 X106.464 Y99.393 E217.0000 F6000
G1 X85.251 Y78.180 E217.5000 F6000
G1 X85.251 Y64.038 E218.0000 F6000
G1 X99.393 Y49.896 E218.5000 F6000
G1 X113.536 Y49.896 E219.0000 F6000
G1 X134.749 Y71.109 E219.5000 F6000
G1 X134.749 Y85.251 E220.0000 F6000
; --- LAYER 56 : Z=11.3986mm (Phi-Locked) ---
G1 Z11.3986 F9000
G1 X110.000 Y110.000 E220.5000 F6000
G1 X119.772 Y115.431 E221.0000 F6000
G1 X149.744 Y116.740 E221.5000 F6000
G1 X159.298 Y127.167 E222.0000 F6000
G1 X158.426 Y147.148 E222.5000 F6000
G1 X147.999 Y156.702 E223.0000 F6000
G1 X118.028 Y155.393 E223.5000 F6000
G1 X108.473 Y144.967 E224.0000 F6000
; --- LAYER 57 : Z=11.5967mm (Phi-Locked) ---
G1 Z11.5967 F9000
G1 X110.000 Y110.000 E224.5000 F6000
G1 X99.126 Y112.598 E225.0000 F6000
G1 X76.144 Y131.881 E225.5000 F6000
G1 X62.056 Y130.649 E226.0000 F6000
G1 X49.200 Y115.328 E226.5000 F6000
G1 X50.433 Y101.240 E227.0000 F6000
G1 X73.414 Y81.956 E227.5000 F6000
G1 X87.502 Y83.188 E228.0000 F6000
; --- LAYER 58 : Z=11.7962mm (Phi-Locked) ---
G1 Z11.7962 F9000
G1 X110.000 Y110.000 E228.5000 F6000
G1 X116.262 Y100.738 E229.0000 F6000
G1 X120.178 Y70.995 E229.5000 F6000
G1 X131.398 Y62.386 E230.0000 F6000
G1 X151.227 Y64.996 E230.5000 F6000
G1 X159.836 Y76.216 E231.0000 F6000
G1 X155.920 Y105.959 E231.5000 F6000
G1 X144.701 Y114.568 E232.0000 F6000
; --- LAYER 59 : Z=11.9974mm (Phi-Locked) ---
G1 Z11.9974 F9000
G1 X110.000 Y110.000 E232.5000 F6000
G1 X111.640 Y121.059 E233.0000 F6000
G1 X128.847 Y145.634 E233.5000 F6000
G1 X126.392 Y159.561 E234.0000 F6000
G1 X110.009 Y171.033 E234.5000 F6000
G1 X96.081 Y168.577 E235.0000 F6000
G1 X78.874 Y144.002 E235.5000 F6000
G1 X81.330 Y130.075 E236.0000 F6000
; --- LAYER 60 : Z=12.2001mm (Phi-Locked) ---
G1 Z12.2001 F9000
G1 X110.000 Y110.000 E236.5000 F6000
G1 X101.319 Y102.954 E237.0000 F6000
G1 X72.030 Y96.461 E237.5000 F6000
G1 X64.432 Y84.534 E238.0000 F6000
G1 X68.761 Y65.008 E238.5000 F6000
G1 X80.688 Y57.409 E239.0000 F6000
G1 X109.977 Y63.902 E239.5000 F6000
G1 X117.575 Y75.830 E240.0000 F6000
; --- LAYER 61 : Z=12.404mm (Phi-Locked) ---
G1 Z12.404 F9000
G1 X110.000 Y110.000 E240.5000 F6000
G1 X121.160 Y109.330 E241.0000 F6000
G1 X147.141 Y94.330 E241.5000 F6000
G1 X160.801 Y97.990 E242.0000 F6000
G1 X170.801 Y115.311 E242.5000 F6000
G1 X167.141 Y128.971 E243.0000 F6000
G1 X141.160 Y143.971 E243.5000 F6000
G1 X127.500 Y140.311 E244.0000 F6000
; --- LAYER 62 : Z=12.6087mm (Phi-Locked) ---
G1 Z12.6087 F9000
G1 X110.000 Y110.000 E244.5000 F6000
G1 X102.224 Y118.034 E245.0000 F6000
G1 X93.203 Y146.645 E245.5000 F6000
G1 X80.659 Y153.175 E246.0000 F6000
G1 X61.585 Y147.161 E246.5000 F6000
G1 X55.055 Y134.617 E247.0000 F6000
G1 X64.076 Y106.005 E247.5000 F6000
G1 X76.620 Y99.475 E248.0000 F6000
; --- LAYER 63 : Z=12.8137mm (Phi-Locked) ---
G1 Z12.8137 F9000
G1 X110.000 Y110.000 E248.5000 F6000
G1 X110.305 Y98.824 E249.0000 F6000
G1 X97.627 Y71.635 E249.5000 F6000
G1 X102.464 Y58.345 E250.0000 F6000
G1 X120.590 Y49.893 E250.5000 F6000
G1 X133.879 Y54.730 E251.0000 F6000
G1 X146.558 Y81.919 E251.5000 F6000
G1 X141.721 Y95.208 E252.0000 F6000
; --- LAYER 64 : Z=13.0184mm (Phi-Locked) ---
G1 Z13.0184 F9000
G1 X110.000 Y110.000 E252.5000 F6000
G1 X117.325 Y118.446 E253.0000 F6000
G1 X145.042 Y129.927 E253.5000 F6000
G1 X150.454 Y142.992 E254.0000 F6000
G1 X142.800 Y161.470 E254.5000 F6000
G1 X129.734 Y166.882 E255.0000 F6000
G1 X102.018 Y155.401 E255.5000 F6000
G1 X96.606 Y142.336 E256.0000 F6000
; --- LAYER 65 : Z=13.2224mm (Phi-Locked) ---
G1 Z13.2224 F9000
G1 X110.000 Y110.000 E256.5000 F6000
G1 X98.893 Y108.722 E257.0000 F6000
G1 X70.702 Y118.982 E257.5000 F6000
G1 X57.885 Y113.006 E258.0000 F6000
G1 X51.045 Y94.212 E258.5000 F6000
G1 X57.021 Y81.395 E259.0000 F6000
G1 X85.212 Y71.134 E259.5000 F6000
G1 X98.029 Y77.111 E260.0000 F6000
; --- LAYER 66 : Z=13.4252mm (Phi-Locked) ---
G1 Z13.4252 F9000
G1 X110.000 Y110.000 E260.5000 F6000
G1 X119.053 Y103.439 E261.0000 F6000
G1 X132.905 Y76.828 E261.5000 F6000
G1 X146.393 Y72.576 E262.0000 F6000
G1 X164.133 Y81.811 E262.5000 F6000
G1 X168.385 Y95.298 E263.0000 F6000
G1 X154.533 Y121.909 E263.5000 F6000
G1 X141.045 Y126.161 E264.0000 F6000
; --- LAYER 67 : Z=13.6266mm (Phi-Locked) ---
G1 Z13.6266 F9000
G1 X110.000 Y110.000 E264.5000 F6000
G1 X107.759 Y120.953 E265.0000 F6000
G1 X115.523 Y149.931 E265.5000 F6000
G1 X108.452 Y162.179 E266.0000 F6000
G1 X89.134 Y167.355 E266.5000 F6000
G1 X76.886 Y160.284 E267.0000 F6000
G1 X69.122 Y131.306 E267.5000 F6000
G1 X76.193 Y119.059 E268.0000 F6000
; --- LAYER 68 : Z=13.8263mm (Phi-Locked) ---
G1 Z13.8263 F9000
G1 X110.000 Y110.000 E268.5000 F6000
G1 X104.253 Y100.410 E269.0000 F6000
G1 X78.951 Y84.291 E269.5000 F6000
G1 X75.890 Y70.484 E270.0000 F6000
G1 X86.636 Y53.616 E270.5000 F6000
G1 X100.443 Y50.555 E271.0000 F6000
G1 X125.745 Y66.674 E271.5000 F6000
G1 X128.805 Y80.481 E272.0000 F6000
; --- LAYER 69 : Z=14.0244mm (Phi-Locked) ---
G1 Z14.0244 F9000
G1 X110.000 Y110.000 E272.5000 F6000
G1 X120.716 Y113.188 E273.0000 F6000
G1 X150.261 Y107.978 E273.5000 F6000
G1 X161.845 Y116.090 E274.0000 F6000
G1 X165.318 Y135.786 E274.5000 F6000
G1 X157.206 Y147.370 E275.0000 F6000
G1 X127.662 Y152.580 E275.5000 F6000
G1 X116.078 Y144.468 E276.0000 F6000
; --- LAYER 70 : Z=14.2212mm (Phi-Locked) ---
G1 Z14.2212 F9000
G1 X110.000 Y110.000 E276.5000 F6000
G1 X99.946 Y114.890 E277.0000 F6000
G1 X81.683 Y138.690 E277.5000 F6000
G1 X67.662 Y140.536 E278.0000 F6000
G1 X51.795 Y128.361 E278.5000 F6000
G1 X49.949 Y114.340 E279.0000 F6000
G1 X68.211 Y90.539 E279.5000 F6000
G1 X82.233 Y88.693 E280.0000 F6000
; --- LAYER 71 : Z=14.4169mm (Phi-Locked) ---
G1 Z14.4169 F9000
G1 X110.000 Y110.000 E280.5000 F6000
G1 X114.109 Y99.602 E281.0000 F6000
G1 X111.495 Y69.716 E281.5000 F6000
G1 X120.585 Y58.883 E282.0000 F6000
G1 X140.509 Y57.140 E282.5000 F6000
G1 X151.343 Y66.230 E283.0000 F6000
G1 X153.957 Y96.116 E283.5000 F6000
G1 X144.867 Y106.950 E284.0000 F6000
; --- LAYER 72 : Z=14.6121mm (Phi-Locked) ---
G1 Z14.6121 F9000
G1 X110.000 Y110.000 E284.5000 F6000
G1 X113.995 Y120.442 E285.0000 F6000
G1 X136.113 Y140.710 E285.5000 F6000
G1 X136.730 Y154.839 E286.0000 F6000
G1 X123.218 Y169.584 E286.5000 F6000
G1 X109.090 Y170.201 E287.0000 F6000
G1 X86.971 Y149.933 E287.5000 F6000
G1 X86.354 Y135.805 E288.0000 F6000
; --- LAYER 73 : Z=14.8071mm (Phi-Locked) ---
G1 Z14.8071 F9000
G1 X110.000 Y110.000 E288.5000 F6000
G1 X100.000 Y105.000 E289.0000 F6000
G1 X70.000 Y105.000 E289.5000 F6000
G1 X60.000 Y95.000 E290.0000 F6000
G1 X60.000 Y75.000 E290.5000 F6000
G1 X70.000 Y65.000 E291.0000 F6000
G1 X100.000 Y65.000 E291.5000 F6000
G1 X110.000 Y75.000 E292.0000 F6000
; --- LAYER 74 : Z=15.0025mm (Phi-Locked) ---
G1 Z15.0025 F9000
G1 X110.000 Y110.000 E292.5000 F6000
G1 X120.751 Y106.930 E293.0000 F6000
G1 X142.869 Y86.663 E293.5000 F6000
G1 X156.998 Y87.280 E294.0000 F6000
G1 X170.510 Y102.025 E294.5000 F6000
G1 X169.893 Y116.154 E295.0000 F6000
G1 X147.774 Y136.422 E295.5000 F6000
G1 X133.646 Y135.805 E296.0000 F6000
; --- LAYER 75 : Z=15.1987mm (Phi-Locked) ---
G1 Z15.1987 F9000
G1 X110.000 Y110.000 E296.5000 F6000
G1 X104.147 Y119.526 E297.0000 F6000
G1 X101.533 Y149.412 E297.5000 F6000
G1 X90.699 Y158.502 E298.0000 F6000
G1 X70.775 Y156.759 E298.5000 F6000
G1 X61.685 Y145.926 E299.0000 F6000
G1 X64.300 Y116.040 E299.5000 F6000
G1 X75.133 Y106.950 E300.0000 F6000
; --- LAYER 76 : Z=15.3961mm (Phi-Locked) ---
G1 Z15.3961 F9000
G1 X110.000 Y110.000 E300.5000 F6000
G1 X107.879 Y99.023 E301.0000 F6000
G1 X89.616 Y75.222 E301.5000 F6000
G1 X91.462 Y61.201 E302.0000 F6000
G1 X107.329 Y49.026 E302.5000 F6000
G1 X121.350 Y50.872 E303.0000 F6000
G1 X139.613 Y74.672 E303.5000 F6000
G1 X137.767 Y88.693 E304.0000 F6000
; --- LAYER 77 : Z=15.595mm (Phi-Locked) ---
G1 Z15.595 F9000
G1 X110.000 Y110.000 E304.5000 F6000
G1 X118.980 Y116.661 E305.0000 F6000
G1 X148.524 Y121.870 E305.5000 F6000
G1 X156.636 Y133.455 E306.0000 F6000
G1 X153.163 Y153.151 E306.5000 F6000
G1 X141.578 Y161.262 E307.0000 F6000
G1 X112.034 Y156.053 E307.5000 F6000
G1 X103.922 Y144.468 E308.0000 F6000
; --- LAYER 78 : Z=15.7955mm (Phi-Locked) ---
G1 Z15.7955 F9000
G1 X110.000 Y110.000 E308.5000 F6000
G1 X98.880 Y111.156 E309.0000 F6000
G1 X73.578 Y127.275 E309.5000 F6000
G1 X59.771 Y124.214 E310.0000 F6000
G1 X49.025 Y107.346 E310.5000 F6000
G1 X52.086 Y93.539 E311.0000 F6000
G1 X77.388 Y77.420 E311.5000 F6000
G1 X91.195 Y80.481 E312.0000 F6000
; --- LAYER 79 : Z=15.9976mm (Phi-Locked) ---
G1 Z15.9976 F9000
G1 X110.000 Y110.000 E312.5000 F6000
G1 X117.418 Y101.635 E313.0000 F6000
G1 X125.182 Y72.657 E313.5000 F6000
G1 X137.430 Y65.586 E314.0000 F6000
G1 X156.748 Y70.762 E314.5000 F6000
G1 X163.819 Y83.010 E315.0000 F6000
G1 X156.055 Y111.988 E315.5000 F6000
G1 X143.807 Y119.059 E316.0000 F6000
; --- LAYER 80 : Z=16.201mm (Phi-Locked) ---
G1 Z16.201 F9000
G1 X110.000 Y110.000 E316.5000 F6000
G1 X110.182 Y121.179 E317.0000 F6000
G1 X124.035 Y147.789 E317.5000 F6000
G1 X119.782 Y161.277 E318.0000 F6000
G1 X102.042 Y170.512 E318.5000 F6000
G1 X88.554 Y166.259 E319.0000 F6000
G1 X74.702 Y139.649 E319.5000 F6000
G1 X78.955 Y126.161 E320.0000 F6000
; --- LAYER 81 : Z=16.4054mm (Phi-Locked) ---
G1 Z16.4054 F9000
G1 X110.000 Y110.000 E320.5000 F6000
G1 X102.313 Y101.881 E321.0000 F6000
G1 X74.122 Y91.621 E321.5000 F6000
G1 X68.146 Y78.804 E322.0000 F6000
G1 X74.986 Y60.010 E322.5000 F6000
G1 X87.803 Y54.033 E323.0000 F6000
G1 X115.994 Y64.294 E323.5000 F6000
G1 X121.971 Y77.111 E324.0000 F6000
; --- LAYER 82 : Z=16.6103mm (Phi-Locked) ---
G1 Z16.6103 F9000
G1 X110.000 Y110.000 E324.5000 F6000
G1 X121.152 Y110.793 E325.0000 F6000
G1 X148.869 Y99.312 E325.5000 F6000
G1 X161.934 Y104.724 E326.0000 F6000
G1 X169.588 Y123.202 E326.5000 F6000
G1 X164.176 Y136.267 E327.0000 F6000
G1 X136.460 Y147.748 E327.5000 F6000
G1 X123.394 Y142.336 E328.0000 F6000
; --- LAYER 83 : Z=16.8153mm (Phi-Locked) ---
G1 Z16.8153 F9000
G1 X110.000 Y110.000 E328.5000 F6000
G1 X101.242 Y116.950 E329.0000 F6000
G1 X88.564 Y144.139 E329.5000 F6000
G1 X75.274 Y148.976 E330.0000 F6000
G1 X57.148 Y140.524 E330.5000 F6000
G1 X52.311 Y127.234 E331.0000 F6000
G1 X64.990 Y100.045 E331.5000 F6000
G1 X78.279 Y95.208 E332.0000 F6000
; --- LAYER 84 : Z=17.0196mm (Phi-Locked) ---
G1 Z17.0196 F9000
G1 X110.000 Y110.000 E332.5000 F6000
G1 X111.762 Y98.959 E333.0000 F6000
G1 X102.740 Y70.348 E333.5000 F6000
G1 X109.270 Y57.804 E334.0000 F6000
G1 X128.345 Y51.789 E334.5000 F6000
G1 X140.889 Y58.320 E335.0000 F6000
G1 X149.910 Y86.931 E335.5000 F6000
G1 X143.380 Y99.475 E336.0000 F6000
; --- LAYER 85 : Z=17.223mm (Phi-Locked) ---
G1 Z17.223 F9000
G1 X110.000 Y110.000 E336.5000 F6000
G1 X116.160 Y119.330 E337.0000 F6000
G1 X142.141 Y134.330 E337.5000 F6000
G1 X145.801 Y147.990 E338.0000 F6000
G1 X135.801 Y165.311 E338.5000 F6000
G1 X122.141 Y168.971 E339.0000 F6000
G1 X96.160 Y153.971 E339.5000 F6000
G1 X92.500 Y140.311 E340.0000 F6000
; --- LAYER 86 : Z=17.425mm (Phi-Locked) ---
G1 Z17.425 F9000
G1 X110.000 Y110.000 E340.5000 F6000
G1 X99.155 Y107.283 E341.0000 F6000
G1 X69.866 Y113.776 E341.5000 F6000
G1 X57.939 Y106.178 E342.0000 F6000
G1 X53.610 Y86.652 E342.5000 F6000
G1 X61.208 Y74.724 E343.0000 F6000
G1 X90.497 Y68.231 E343.5000 F6000
G1 X102.425 Y75.830 E344.0000 F6000
; --- LAYER 87 : Z=17.6254mm (Phi-Locked) ---
G1 Z17.6254 F9000
G1 X110.000 Y110.000 E344.5000 F6000
G1 X119.832 Y104.676 E345.0000 F6000
G1 X137.039 Y80.102 E345.5000 F6000
G1 X150.966 Y77.646 E346.0000 F6000
G1 X167.349 Y89.118 E346.5000 F6000
G1 X169.805 Y103.045 E347.0000 F6000
G1 X152.598 Y127.619 E347.5000 F6000
G1 X138.670 Y130.075 E348.0000 F6000
; --- LAYER 88 : Z=17.8242mm (Phi-Locked) ---
G1 Z17.8242 F9000
G1 X110.000 Y110.000 E348.5000 F6000
G1 X106.348 Y120.567 E349.0000 F6000
G1 X110.264 Y150.310 E349.5000 F6000
G1 X101.655 Y161.530 E350.0000 F6000
G1 X81.826 Y164.141 E350.5000 F6000
G1 X70.606 Y155.531 E351.0000 F6000
G1 X66.690 Y125.788 E351.5000 F6000
G1 X75.299 Y114.568 E352.0000 F6000
; --- LAYER 89 : Z=18.0215mm (Phi-Locked) ---
G1 Z18.0215 F9000
G1 X110.000 Y110.000 E352.5000 F6000
G1 X105.553 Y99.742 E353.0000 F6000
G1 X82.572 Y80.458 E353.5000 F6000
G1 X81.340 Y66.370 E354.0000 F6000
G1 X94.195 Y51.049 E354.5000 F6000
G1 X108.284 Y49.816 E355.0000 F6000
G1 X131.265 Y69.100 E355.5000 F6000
G1 X132.498 Y83.188 E356.0000 F6000
; --- LAYER 90 : Z=18.2176mm (Phi-Locked) ---
G1 Z18.2176 F9000
G1 X110.000 Y110.000 E356.5000 F6000
G1 X120.209 Y114.559 E357.0000 F6000
G1 X150.180 Y113.250 E357.5000 F6000
G1 X160.607 Y122.805 E358.0000 F6000
G1 X161.479 Y142.786 E358.5000 F6000
G1 X151.925 Y153.212 E359.0000 F6000
G1 X121.953 Y154.521 E359.5000 F6000
G1 X111.527 Y144.967 E360.0000 F6000
; --- LAYER 91 : Z=18.413mm (Phi-Locked) ---
G1 Z18.413 F9000
G1 X110.000 Y110.000 E360.5000 F6000
G1 X99.393 Y113.536 E361.0000 F6000
G1 X78.180 Y134.749 E361.5000 F6000
G1 X64.038 Y134.749 E362.0000 F6000
G1 X49.896 Y120.607 E362.5000 F6000
G1 X49.896 Y106.464 E363.0000 F6000
G1 X71.109 Y85.251 E363.5000 F6000
G1 X85.251 Y85.251 E364.0000 F6000
; --- LAYER 92 : Z=18.608mm (Phi-Locked) ---
G1 Z18.608 F9000
G1 X110.000 Y110.000 E364.5000 F6000
G1 X115.431 Y100.228 E365.0000 F6000
G1 X116.740 Y70.256 E365.5000 F6000
G1 X127.167 Y60.702 E366.0000 F6000
G1 X147.148 Y61.574 E366.5000 F6000
G1 X156.702 Y72.001 E367.0000 F6000
G1 X155.393 Y101.972 E367.5000 F6000
G1 X144.967 Y111.527 E368.0000 F6000
; --- LAYER 93 : Z=18.8031mm (Phi-Locked) ---
G1 Z18.8031 F9000
G1 X110.000 Y110.000 E368.5000 F6000
G1 X112.598 Y120.874 E369.0000 F6000
G1 X131.881 Y143.856 E369.5000 F6000
G1 X130.649 Y157.944 E370.0000 F6000
G1 X115.328 Y170.800 E370.5000 F6000
G1 X101.240 Y169.567 E371.0000 F6000
G1 X81.956 Y146.586 E371.5000 F6000
G1 X83.188 Y132.498 E372.0000 F6000
; --- LAYER 94 : Z=18.999mm (Phi-Locked) ---
G1 Z18.999 F9000
G1 X110.000 Y110.000 E372.5000 F6000
G1 X100.738 Y103.738 E373.0000 F6000
G1 X70.995 Y99.822 E373.5000 F6000
G1 X62.386 Y88.602 E374.0000 F6000
G1 X64.996 Y68.773 E374.5000 F6000
G1 X76.216 Y60.164 E375.0000 F6000
G1 X105.959 Y64.080 E375.5000 F6000
G1 X114.568 Y75.299 E376.0000 F6000
; --- LAYER 95 : Z=19.1958mm (Phi-Locked) ---
G1 Z19.1958 F9000
G1 X110.000 Y110.000 E376.5000 F6000
G1 X121.059 Y108.360 E377.0000 F6000
G1 X145.634 Y91.153 E377.5000 F6000
G1 X159.561 Y93.608 E378.0000 F6000
G1 X171.033 Y109.991 E378.5000 F6000
G1 X168.577 Y123.919 E379.0000 F6000
G1 X144.002 Y141.126 E379.5000 F6000
G1 X130.075 Y138.670 E380.0000 F6000
; --- LAYER 96 : Z=19.3941mm (Phi-Locked) ---
G1 Z19.3941 F9000
G1 X110.000 Y110.000 E380.5000 F6000
G1 X102.954 Y118.681 E381.0000 F6000
G1 X96.461 Y147.970 E381.5000 F6000
G1 X84.534 Y155.568 E382.0000 F6000
G1 X65.008 Y151.239 E382.5000 F6000
G1 X57.409 Y139.312 E383.0000 F6000
G1 X63.902 Y110.023 E383.5000 F6000
G1 X75.830 Y102.425 E384.0000 F6000
; --- LAYER 97 : Z=19.5939mm (Phi-Locked) ---
G1 Z19.5939 F9000
G1 X110.000 Y110.000 E384.5000 F6000
G1 X109.330 Y98.840 E385.0000 F6000
G1 X94.330 Y72.859 E385.5000 F6000
G1 X97.990 Y59.199 E386.0000 F6000
G1 X115.311 Y49.199 E386.5000 F6000
G1 X128.971 Y52.859 E387.0000 F6000
G1 X143.971 Y78.840 E387.5000 F6000
G1 X140.311 Y92.500 E388.0000 F6000
; --- LAYER 98 : Z=19.7953mm (Phi-Locked) ---
G1 Z19.7953 F9000
G1 X110.000 Y110.000 E388.5000 F6000
G1 X118.034 Y117.776 E389.0000 F6000
G1 X146.645 Y126.797 E389.5000 F6000
G1 X153.175 Y139.341 E390.0000 F6000
G1 X147.161 Y158.415 E390.5000 F6000
G1 X134.617 Y164.945 E391.0000 F6000
G1 X106.005 Y155.924 E391.5000 F6000
G1 X99.475 Y143.380 E392.0000 F6000
; --- LAYER 99 : Z=19.9982mm (Phi-Locked) ---
G1 Z19.9982 F9000
G1 X110.000 Y110.000 E392.5000 F6000
G1 X98.824 Y109.695 E393.0000 F6000
G1 X71.635 Y122.373 E393.5000 F6000
G1 X58.345 Y117.536 E394.0000 F6000
G1 X49.893 Y99.410 E394.5000 F6000
G1 X54.730 Y86.121 E395.0000 F6000
G1 X81.919 Y73.442 E395.5000 F6000
G1 X95.208 Y78.279 E396.0000 F6000
; --- LAYER 100 : Z=20.2022mm (Phi-Locked) ---
G1 Z20.2022 F9000
G1 X110.000 Y110.000 E396.5000 F6000
G1 X118.446 Y102.675 E397.0000 F6000
G1 X129.927 Y74.958 E397.5000 F6000
G1 X142.992 Y69.546 E398.0000 F6000
G1 X161.470 Y77.200 E398.5000 F6000
G1 X166.882 Y90.266 E399.0000 F6000
G1 X155.401 Y117.982 E399.5000 F6000
G1 X142.336 Y123.394 E400.0000 F6000
; --- LAYER 101 : Z=20.407mm (Phi-Locked) ---
G1 Z20.407 F9000
G1 X110.000 Y110.000 E400.5000 F6000
G1 X108.722 Y121.107 E401.0000 F6000
G1 X118.982 Y149.298 E401.5000 F6000
G1 X113.006 Y162.115 E402.0000 F6000
G1 X94.212 Y168.955 E402.5000 F6000
G1 X81.395 Y162.979 E403.0000 F6000
G1 X71.134 Y134.788 E403.5000 F6000
G1 X77.111 Y121.971 E404.0000 F6000
; --- LAYER 102 : Z=20.612mm (Phi-Locked) ---
G1 Z20.612 F9000
G1 X110.000 Y110.000 E404.5000 F6000
G1 X103.439 Y100.947 E405.0000 F6000
G1 X76.828 Y87.095 E405.5000 F6000
G1 X72.576 Y73.607 E406.0000 F6000
G1 X81.811 Y55.867 E406.5000 F6000
G1 X95.298 Y51.615 E407.0000 F6000
G1 X121.909 Y65.467 E407.5000 F6000
G1 X126.161 Y78.955 E408.0000 F6000
; --- LAYER 103 : Z=20.8167mm (Phi-Locked) ---
G1 Z20.8167 F9000
G1 X110.000 Y110.000 E408.5000 F6000
G1 X120.953 Y112.241 E409.0000 F6000
G1 X149.931 Y104.477 E409.5000 F6000
G1 X162.179 Y111.548 E410.0000 F6000
G1 X167.355 Y130.866 E410.5000 F6000
G1 X160.284 Y143.114 E411.0000 F6000
G1 X131.306 Y150.878 E411.5000 F6000
G1 X119.059 Y143.807 E412.0000 F6000
; --- LAYER 104 : Z=21.0205mm (Phi-Locked) ---
G1 Z21.0205 F9000
G1 X110.000 Y110.000 E412.5000 F6000
G1 X100.410 Y115.747 E413.0000 F6000
G1 X84.291 Y141.049 E413.5000 F6000
G1 X70.484 Y144.110 E414.0000 F6000
G1 X53.616 Y133.364 E414.5000 F6000
G1 X50.555 Y119.557 E415.0000 F6000
G1 X66.674 Y94.255 E415.5000 F6000
G1 X80.481 Y91.195 E416.0000 F6000
; --- LAYER 105 : Z=21.2231mm (Phi-Locked) ---
G1 Z21.2231 F9000
G1 X110.000 Y110.000 E416.5000 F6000
G1 X113.188 Y99.284 E417.0000 F6000
G1 X107.978 Y69.739 E417.5000 F6000
G1 X116.090 Y58.155 E418.0000 F6000
G1 X135.786 Y54.682 E418.5000 F6000
G1 X147.370 Y62.794 E419.0000 F6000
G1 X152.580 Y92.338 E419.5000 F6000
G1 X144.468 Y103.922 E420.0000 F6000
; --- LAYER 106 : Z=21.4242mm (Phi-Locked) ---
G1 Z21.4242 F9000
G1 X110.000 Y110.000 E420.5000 F6000
G1 X114.890 Y120.054 E421.0000 F6000
G1 X138.690 Y138.317 E421.5000 F6000
G1 X140.536 Y152.338 E422.0000 F6000
G1 X128.361 Y168.205 E422.5000 F6000
G1 X114.340 Y170.051 E423.0000 F6000
G1 X90.539 Y151.789 E423.5000 F6000
G1 X88.693 Y137.767 E424.0000 F6000
; --- LAYER 107 : Z=21.6237mm (Phi-Locked) ---
G1 Z21.6237 F9000
G1 X110.000 Y110.000 E424.5000 F6000
G1 X99.602 Y105.891 E425.0000 F6000
G1 X69.716 Y108.505 E425.5000 F6000
G1 X58.883 Y99.415 E426.0000 F6000
G1 X57.140 Y79.491 E426.5000 F6000
G1 X66.230 Y68.657 E427.0000 F6000
G1 X96.116 Y66.043 E427.5000 F6000
G1 X106.950 Y75.133 E428.0000 F6000
; --- LAYER 108 : Z=21.8216mm (Phi-Locked) ---
G1 Z21.8216 F9000
G1 X110.000 Y110.000 E428.5000 F6000
G1 X120.442 Y106.005 E429.0000 F6000
G1 X140.710 Y83.887 E429.5000 F6000
G1 X154.839 Y83.270 E430.0000 F6000
G1 X169.584 Y96.782 E430.5000 F6000
G1 X170.201 Y110.910 E431.0000 F6000
G1 X149.933 Y133.029 E431.5000 F6000
G1 X135.805 Y133.646 E432.0000 F6000
; --- LAYER 109 : Z=22.0182mm (Phi-Locked) ---
G1 Z22.0182 F9000
G1 X110.000 Y110.000 E432.5000 F6000
G1 X105.000 Y120.000 E433.0000 F6000
G1 X105.000 Y150.000 E433.5000 F6000
G1 X95.000 Y160.000 E434.0000 F6000
G1 X75.000 Y160.000 E434.5000 F6000
G1 X65.000 Y150.000 E435.0000 F6000
G1 X65.000 Y120.000 E435.5000 F6000
G1 X75.000 Y110.000 E436.0000 F6000
; --- LAYER 110 : Z=22.2138mm (Phi-Locked) ---
G1 Z22.2138 F9000
G1 X110.000 Y110.000 E436.5000 F6000
G1 X106.930 Y99.249 E437.0000 F6000
G1 X86.663 Y77.131 E437.5000 F6000
G1 X87.280 Y63.002 E438.0000 F6000
G1 X102.025 Y49.490 E438.5000 F6000
G1 X116.154 Y50.107 E439.0000 F6000
G1 X136.422 Y72.226 E439.5000 F6000
G1 X135.805 Y86.354 E440.0000 F6000
; --- LAYER 111 : Z=22.4089mm (Phi-Locked) ---
G1 Z22.4089 F9000
G1 X110.000 Y110.000 E440.5000 F6000
G1 X119.526 Y115.853 E441.0000 F6000
G1 X149.412 Y118.467 E441.5000 F6000
G1 X158.502 Y129.301 E442.0000 F6000
G1 X156.759 Y149.225 E442.5000 F6000
G1 X145.926 Y158.315 E443.0000 F6000
G1 X116.040 Y155.700 E443.5000 F6000
G1 X106.950 Y144.867 E444.0000 F6000
; --- LAYER 112 : Z=22.6039mm (Phi-Locked) ---
G1 Z22.6039 F9000
G1 X110.000 Y110.000 E444.5000 F6000
G1 X99.023 Y112.121 E445.0000 F6000
G1 X75.222 Y130.384 E445.5000 F6000
G1 X61.201 Y128.538 E446.0000 F6000
G1 X49.026 Y112.671 E446.5000 F6000
G1 X50.872 Y98.650 E447.0000 F6000
G1 X74.672 Y80.387 E447.5000 F6000
G1 X88.693 Y82.233 E448.0000 F6000
; --- LAYER 113 : Z=22.7994mm (Phi-Locked) ---
G1 Z22.7994 F9000
G1 X110.000 Y110.000 E448.5000 F6000
G1 X116.661 Y101.020 E449.0000 F6000
G1 X121.870 Y71.476 E449.5000 F6000
G1 X133.455 Y63.364 E450.0000 F6000
G1 X153.151 Y66.837 E450.5000 F6000
G1 X161.262 Y78.422 E451.0000 F6000
G1 X156.053 Y107.966 E451.5000 F6000
G1 X144.468 Y116.078 E452.0000 F6000
; --- LAYER 114 : Z=22.9958mm (Phi-Locked) ---
G1 Z22.9958 F9000
G1 X110.000 Y110.000 E452.5000 F6000
G1 X111.156 Y121.120 E453.0000 F6000
G1 X127.275 Y146.422 E453.5000 F6000
G1 X124.214 Y160.229 E454.0000 F6000
G1 X107.346 Y170.975 E454.5000 F6000
G1 X93.539 Y167.914 E455.0000 F6000
G1 X77.420 Y142.612 E455.5000 F6000
G1 X80.481 Y128.805 E456.0000 F6000
; --- LAYER 115 : Z=23.1934mm (Phi-Locked) ---
G1 Z23.1934 F9000
G1 X110.000 Y110.000 E456.5000 F6000
G1 X101.635 Y102.582 E457.0000 F6000
G1 X72.657 Y94.818 E457.5000 F6000
G1 X65.586 Y82.570 E458.0000 F6000
G1 X70.762 Y63.252 E458.5000 F6000
G1 X83.010 Y56.181 E459.0000 F6000
G1 X111.988 Y63.945 E459.5000 F6000
G1 X119.059 Y76.193 E460.0000 F6000
; --- LAYER 116 : Z=23.3926mm (Phi-Locked) ---
G1 Z23.3926 F9000
G1 X110.000 Y110.000 E460.5000 F6000
G1 X121.179 Y109.818 E461.0000 F6000
G1 X147.789 Y95.965 E461.5000 F6000
G1 X161.277 Y100.218 E462.0000 F6000
G1 X170.512 Y117.958 E462.5000 F6000
G1 X166.259 Y131.446 E463.0000 F6000
G1 X139.649 Y145.298 E463.5000 F6000
G1 X126.161 Y141.045 E464.0000 F6000
; --- LAYER 117 : Z=23.5933mm (Phi-Locked) ---
G1 Z23.5933 F9000
G1 X110.000 Y110.000 E464.5000 F6000
G1 X101.881 Y117.687 E465.0000 F6000
G1 X91.621 Y145.878 E465.5000 F6000
G1 X78.804 Y151.854 E466.0000 F6000
G1 X60.010 Y145.014 E466.5000 F6000
G1 X54.033 Y132.197 E467.0000 F6000
G1 X64.294 Y104.006 E467.5000 F6000
G1 X77.111 Y98.029 E468.0000 F6000
; --- LAYER 118 : Z=23.7956mm (Phi-Locked) ---
G1 Z23.7956 F9000
G1 X110.000 Y110.000 E468.5000 F6000
G1 X110.793 Y98.848 E469.0000 F6000
G1 X99.312 Y71.131 E469.5000 F6000
G1 X104.724 Y58.066 E470.0000 F6000
G1 X123.202 Y50.412 E470.5000 F6000
G1 X136.267 Y55.824 E471.0000 F6000
G1 X147.748 Y83.540 E471.5000 F6000
G1 X142.336 Y96.606 E472.0000 F6000
; --- LAYER 119 : Z=23.9992mm (Phi-Locked) ---
G1 Z23.9992 F9000
G1 X110.000 Y110.000 E472.5000 F6000
G1 X116.950 Y118.758 E473.0000 F6000
G1 X144.139 Y131.436 E473.5000 F6000
G1 X148.976 Y144.726 E474.0000 F6000
G1 X140.524 Y162.852 E474.5000 F6000
G1 X127.234 Y167.689 E475.0000 F6000
G1 X100.045 Y155.010 E475.5000 F6000
G1 X95.208 Y141.721 E476.0000 F6000
; --- LAYER 120 : Z=24.2037mm (Phi-Locked) ---
G1 Z24.2037 F9000
G1 X110.000 Y110.000 E476.5000 F6000
G1 X98.959 Y108.238 E477.0000 F6000
G1 X70.348 Y117.260 E477.5000 F6000
G1 X57.804 Y110.730 E478.0000 F6000
G1 X51.789 Y91.655 E478.5000 F6000
G1 X58.320 Y79.111 E479.0000 F6000
G1 X86.931 Y70.090 E479.5000 F6000
G1 X99.475 Y76.620 E480.0000 F6000
; --- LAYER 121 : Z=24.4087mm (Phi-Locked) ---
G1 Z24.4087 F9000
G1 X110.000 Y110.000 E480.5000 F6000
G1 X119.330 Y103.840 E481.0000 F6000
G1 X134.330 Y77.859 E481.5000 F6000
G1 X147.990 Y74.199 E482.0000 F6000
G1 X165.311 Y84.199 E482.5000 F6000
G1 X168.971 Y97.859 E483.0000 F6000
G1 X153.971 Y123.840 E483.5000 F6000
G1 X140.311 Y127.500 E484.0000 F6000
; --- LAYER 122 : Z=24.6136mm (Phi-Locked) ---
G1 Z24.6136 F9000
G1 X110.000 Y110.000 E484.5000 F6000
G1 X107.283 Y120.845 E485.0000 F6000
G1 X113.776 Y150.134 E485.5000 F6000
G1 X106.178 Y162.061 E486.0000 F6000
G1 X86.652 Y166.390 E486.5000 F6000
G1 X74.724 Y158.792 E487.0000 F6000
G1 X68.231 Y129.503 E487.5000 F6000
G1 X75.830 Y117.575 E488.0000 F6000
; --- LAYER 123 : Z=24.8178mm (Phi-Locked) ---
G1 Z24.8178 F9000
G1 X110.000 Y110.000 E488.5000 F6000
G1 X104.676 Y100.168 E489.0000 F6000
G1 X80.102 Y82.961 E489.5000 F6000
G1 X77.646 Y69.034 E490.0000 F6000
G1 X89.118 Y52.651 E490.5000 F6000
G1 X103.045 Y50.195 E491.0000 F6000
G1 X127.619 Y67.402 E491.5000 F6000
G1 X130.075 Y81.330 E492.0000 F6000
; --- LAYER 124 : Z=25.021mm (Phi-Locked) ---
G1 Z25.021 F9000
G1 X110.000 Y110.000 E492.5000 F6000
G1 X120.567 Y113.652 E493.0000 F6000
G1 X150.310 Y109.736 E493.5000 F6000
G1 X161.530 Y118.345 E494.0000 F6000
G1 X164.141 Y138.174 E494.5000 F6000
G1 X155.531 Y149.394 E495.0000 F6000
G1 X125.788 Y153.310 E495.5000 F6000
G1 X114.568 Y144.701 E496.0000 F6000
; --- LAYER 125 : Z=25.2227mm (Phi-Locked) ---
G1 Z25.2227 F9000
G1 X110.000 Y110.000 E496.5000 F6000
G1 X99.742 Y114.447 E497.0000 F6000
G1 X80.458 Y137.428 E497.5000 F6000
G1 X66.370 Y138.660 E498.0000 F6000
G1 X51.049 Y125.805 E498.5000 F6000
G1 X49.816 Y111.716 E499.0000 F6000
G1 X69.100 Y88.735 E499.5000 F6000
G1 X83.188 Y87.502 E500.0000 F6000
; --- LAYER 126 : Z=25.4229mm (Phi-Locked) ---
G1 Z25.4229 F9000
G1 X110.000 Y110.000 E500.5000 F6000
G1 X114.559 Y99.791 E501.0000 F6000
G1 X113.250 Y69.820 E501.5000 F6000
G1 X122.805 Y59.393 E502.0000 F6000
G1 X142.786 Y58.521 E502.5000 F6000
G1 X153.212 Y68.075 E503.0000 F6000
G1 X154.521 Y98.047 E503.5000 F6000
G1 X144.967 Y108.473 E504.0000 F6000
; --- LAYER 127 : Z=25.6214mm (Phi-Locked) ---
G1 Z25.6214 F9000
G1 X110.000 Y110.000 E504.5000 F6000
G1 X113.536 Y120.607 E505.0000 F6000
G1 X134.749 Y141.820 E505.5000 F6000
G1 X134.749 Y155.962 E506.0000 F6000
G1 X120.607 Y170.104 E506.5000 F6000
G1 X106.464 Y170.104 E507.0000 F6000
G1 X85.251 Y148.891 E507.5000 F6000
G1 X85.251 Y134.749 E508.0000 F6000
; --- LAYER 128 : Z=25.8186mm (Phi-Locked) ---
G1 Z25.8186 F9000
G1 X110.000 Y110.000 E508.5000 F6000
G1 X100.228 Y104.569 E509.0000 F6000
G1 X70.256 Y103.260 E509.5000 F6000
G1 X60.702 Y92.833 E510.0000 F6000
G1 X61.574 Y72.852 E510.5000 F6000
G1 X72.001 Y63.298 E511.0000 F6000
G1 X101.972 Y64.607 E511.5000 F6000
G1 X111.527 Y75.033 E512.0000 F6000
; --- LAYER 129 : Z=26.0145mm (Phi-Locked) ---
G1 Z26.0145 F9000
G1 X110.000 Y110.000 E512.5000 F6000
G1 X120.874 Y107.402 E513.0000 F6000
G1 X143.856 Y88.119 E513.5000 F6000
G1 X157.944 Y89.351 E514.0000 F6000
G1 X170.800 Y104.672 E514.5000 F6000
G1 X169.567 Y118.760 E515.0000 F6000
G1 X146.586 Y138.044 E515.5000 F6000
G1 X132.498 Y136.812 E516.0000 F6000
; --- LAYER 130 : Z=26.2098mm (Phi-Locked) ---
G1 Z26.2098 F9000
G1 X110.000 Y110.000 E516.5000 F6000
G1 X103.738 Y119.262 E517.0000 F6000
G1 X99.822 Y149.005 E517.5000 F6000
G1 X88.602 Y157.614 E518.0000 F6000
G1 X68.773 Y155.004 E518.5000 F6000
G1 X60.164 Y143.784 E519.0000 F6000
G1 X64.080 Y114.041 E519.5000 F6000
G1 X75.299 Y105.432 E520.0000 F6000
; --- LAYER 131 : Z=26.4048mm (Phi-Locked) ---
G1 Z26.4048 F9000
G1 X110.000 Y110.000 E520.5000 F6000
G1 X108.360 Y98.941 E521.0000 F6000
G1 X91.153 Y74.366 E521.5000 F6000
G1 X93.608 Y60.439 E522.0000 F6000
G1 X109.991 Y48.967 E522.5000 F6000
G1 X123.919 Y51.423 E523.0000 F6000
G1 X141.126 Y75.998 E523.5000 F6000
G1 X138.670 Y89.925 E524.0000 F6000
; --- LAYER 132 : Z=26.6mm (Phi-Locked) ---
G1 Z26.6 F9000
G1 X110.000 Y110.000 E524.5000 F6000
G1 X118.681 Y117.046 E525.0000 F6000
G1 X147.970 Y123.539 E525.5000 F6000
G1 X155.568 Y135.466 E526.0000 F6000
G1 X151.239 Y154.992 E526.5000 F6000
G1 X139.312 Y162.591 E527.0000 F6000
G1 X110.023 Y156.098 E527.5000 F6000
G1 X102.425 Y144.170 E528.0000 F6000
; --- LAYER 133 : Z=26.796mm (Phi-Locked) ---
G1 Z26.796 F9000
G1 X110.000 Y110.000 E528.5000 F6000
G1 X98.840 Y110.670 E529.0000 F6000
G1 X72.859 Y125.670 E529.5000 F6000
G1 X59.199 Y122.010 E530.0000 F6000
G1 X49.199 Y104.689 E530.5000 F6000
G1 X52.859 Y91.029 E531.0000 F6000
G1 X78.840 Y76.029 E531.5000 F6000
G1 X92.500 Y79.689 E532.0000 F6000
; --- LAYER 134 : Z=26.9931mm (Phi-Locked) ---
G1 Z26.9931 F9000
G1 X110.000 Y110.000 E532.5000 F6000
G1 X117.776 Y101.966 E533.0000 F6000
G1 X126.797 Y73.355 E533.5000 F6000
G1 X139.341 Y66.825 E534.0000 F6000
G1 X158.415 Y72.839 E534.5000 F6000
G1 X164.945 Y85.383 E535.0000 F6000
G1 X155.924 Y113.995 E535.5000 F6000
G1 X143.380 Y120.525 E536.0000 F6000
; --- LAYER 135 : Z=27.1915mm (Phi-Locked) ---
G1 Z27.1915 F9000
G1 X110.000 Y110.000 E536.5000 F6000
G1 X109.695 Y121.176 E537.0000 F6000
G1 X122.373 Y148.365 E537.5000 F6000
G1 X117.536 Y161.655 E538.0000 F6000
G1 X99.410 Y170.107 E538.5000 F6000
G1 X86.121 Y165.270 E539.0000 F6000
G1 X73.442 Y138.081 E539.5000 F6000
G1 X78.279 Y124.792 E540.0000 F6000
; --- LAYER 136 : Z=27.3916mm (Phi-Locked) ---
G1 Z27.3916 F9000
G1 X110.000 Y110.000 E540.5000 F6000
G1 X102.675 Y101.554 E541.0000 F6000
G1 X74.958 Y90.073 E541.5000 F6000
G1 X69.546 Y77.008 E542.0000 F6000
G1 X77.200 Y58.530 E542.5000 F6000
G1 X90.266 Y53.118 E543.0000 F6000
G1 X117.982 Y64.599 E543.5000 F6000
G1 X123.394 Y77.664 E544.0000 F6000
; --- LAYER 137 : Z=27.5933mm (Phi-Locked) ---
G1 Z27.5933 F9000
G1 X110.000 Y110.000 E544.5000 F6000
G1 X121.107 Y111.278 E545.0000 F6000
G1 X149.298 Y101.018 E545.5000 F6000
G1 X162.115 Y106.994 E546.0000 F6000
G1 X168.955 Y125.788 E546.5000 F6000
G1 X162.979 Y138.605 E547.0000 F6000
G1 X134.788 Y148.866 E547.5000 F6000
G1 X121.971 Y142.889 E548.0000 F6000
; --- LAYER 138 : Z=27.7964mm (Phi-Locked) ---
G1 Z27.7964 F9000
G1 X110.000 Y110.000 E548.5000 F6000
G1 X100.947 Y116.561 E549.0000 F6000
G1 X87.095 Y143.172 E549.5000 F6000
G1 X73.607 Y147.424 E550.0000 F6000
G1 X55.867 Y138.189 E550.5000 F6000
G1 X51.615 Y124.702 E551.0000 F6000
G1 X65.467 Y98.091 E551.5000 F6000
G1 X78.955 Y93.839 E552.0000 F6000
; --- LAYER 139 : Z=28.0005mm (Phi-Locked) ---
G1 Z28.0005 F9000
G1 X110.000 Y110.000 E552.5000 F6000
G1 X112.241 Y99.047 E553.0000 F6000
G1 X104.477 Y70.069 E553.5000 F6000
G1 X111.548 Y57.821 E554.0000 F6000
G1 X130.866 Y52.645 E554.5000 F6000
G1 X143.114 Y59.716 E555.0000 F6000
G1 X150.878 Y88.694 E555.5000 F6000
G1 X143.807 Y100.941 E556.0000 F6000
; --- LAYER 140 : Z=28.2054mm (Phi-Locked) ---
G1 Z28.2054 F9000
G1 X110.000 Y110.000 E556.5000 F6000
G1 X115.747 Y119.590 E557.0000 F6000
G1 X141.049 Y135.709 E557.5000 F6000
G1 X144.110 Y149.516 E558.0000 F6000
G1 X133.364 Y166.384 E558.5000 F6000
G1 X119.557 Y169.445 E559.0000 F6000
G1 X94.255 Y153.326 E559.5000 F6000
G1 X91.195 Y139.519 E560.0000 F6000
; --- LAYER 141 : Z=28.4104mm (Phi-Locked) ---
G1 Z28.4104 F9000
G1 X110.000 Y110.000 E560.5000 F6000
G1 X99.284 Y106.812 E561.0000 F6000
G1 X69.739 Y112.022 E561.5000 F6000
G1 X58.155 Y103.910 E562.0000 F6000
G1 X54.682 Y84.214 E562.5000 F6000
G1 X62.794 Y72.630 E563.0000 F6000
G1 X92.338 Y67.420 E563.5000 F6000
G1 X103.922 Y75.532 E564.0000 F6000
; --- LAYER 142 : Z=28.6149mm (Phi-Locked) ---
G1 Z28.6149 F9000
G1 X110.000 Y110.000 E564.5000 F6000
G1 X120.054 Y105.110 E565.0000 F6000
G1 X138.317 Y81.310 E565.5000 F6000
G1 X152.338 Y79.464 E566.0000 F6000
G1 X168.205 Y91.639 E566.5000 F6000
G1 X170.051 Y105.660 E567.0000 F6000
G1 X151.789 Y129.461 E567.5000 F6000
G1 X137.767 Y131.307 E568.0000 F6000
; --- LAYER 143 : Z=28.8186mm (Phi-Locked) ---
G1 Z28.8186 F9000
G1 X110.000 Y110.000 E568.5000 F6000
G1 X105.891 Y120.398 E569.0000 F6000
G1 X108.505 Y150.284 E569.5000 F6000
G1 X99.415 Y161.117 E570.0000 F6000
G1 X79.491 Y162.860 E570.5000 F6000
G1 X68.657 Y153.770 E571.0000 F6000
G1 X66.043 Y123.884 E571.5000 F6000
G1 X75.133 Y113.050 E572.0000 F6000
; --- LAYER 144 : Z=29.021mm (Phi-Locked) ---
G1 Z29.021 F9000
G1 X110.000 Y110.000 E572.5000 F6000
G1 X106.005 Y99.558 E573.0000 F6000
G1 X83.887 Y79.290 E573.5000 F6000
G1 X83.270 Y65.161 E574.0000 F6000
G1 X96.782 Y50.416 E574.5000 F6000
G1 X110.910 Y49.799 E575.0000 F6000
G1 X133.029 Y70.067 E575.5000 F6000
G1 X133.646 Y84.195 E576.0000 F6000
; --- LAYER 145 : Z=29.2218mm (Phi-Locked) ---
G1 Z29.2218 F9000
G1 X110.000 Y110.000 E576.5000 F6000
G1 X120.000 Y115.000 E577.0000 F6000
G1 X150.000 Y115.000 E577.5000 F6000
G1 X160.000 Y125.000 E578.0000 F6000
G1 X160.000 Y145.000 E578.5000 F6000
G1 X150.000 Y155.000 E579.0000 F6000
G1 X120.000 Y155.000 E579.5000 F6000
G1 X110.000 Y145.000 E580.0000 F6000
; --- LAYER 146 : Z=29.421mm (Phi-Locked) ---
G1 Z29.421 F9000
G1 X110.000 Y110.000 E580.5000 F6000
G1 X99.249 Y113.070 E581.0000 F6000
G1 X77.131 Y133.337 E581.5000 F6000
G1 X63.002 Y132.720 E582.0000 F6000
G1 X49.490 Y117.975 E582.5000 F6000
G1 X50.107 Y103.846 E583.0000 F6000
G1 X72.226 Y83.578 E583.5000 F6000
G1 X86.354 Y84.195 E584.0000 F6000
; --- LAYER 147 : Z=29.6187mm (Phi-Locked) ---
G1 Z29.6187 F9000
G1 X110.000 Y110.000 E584.5000 F6000
G1 X115.853 Y100.474 E585.0000 F6000
G1 X118.467 Y70.588 E585.5000 F6000
G1 X129.301 Y61.498 E586.0000 F6000
G1 X149.225 Y63.241 E586.5000 F6000
G1 X158.315 Y74.074 E587.0000 F6000
G1 X155.700 Y103.960 E587.5000 F6000
G1 X144.867 Y113.050 E588.0000 F6000
; --- LAYER 148 : Z=29.8151mm (Phi-Locked) ---
G1 Z29.8151 F9000
G1 X110.000 Y110.000 E588.5000 F6000
G1 X112.121 Y120.977 E589.0000 F6000
G1 X130.384 Y144.778 E589.5000 F6000
G1 X128.538 Y158.799 E590.0000 F6000
G1 X112.671 Y170.974 E590.5000 F6000
G1 X98.650 Y169.128 E591.0000 F6000
G1 X80.387 Y145.328 E591.5000 F6000
G1 X82.233 Y131.307 E592.0000 F6000
; --- LAYER 149 : Z=30.0106mm (Phi-Locked) ---
G1 Z30.0106 F9000
G1 X110.000 Y110.000 E592.5000 F6000
G1 X101.020 Y103.339 E593.0000 F6000
G1 X71.476 Y98.130 E593.5000 F6000
G1 X63.364 Y86.545 E594.0000 F6000
G1 X66.837 Y66.849 E594.5000 F6000
G1 X78.422 Y58.738 E595.0000 F6000
G1 X107.966 Y63.947 E595.5000 F6000
G1 X116.078 Y75.532 E596.0000 F6000
; --- LAYER 150 : Z=30.2057mm (Phi-Locked) ---
G1 Z30.2057 F9000
G1 X110.000 Y110.000 E596.5000 F6000
G1 X121.120 Y108.844 E597.0000 F6000
G1 X146.422 Y92.725 E597.5000 F6000
G1 X160.229 Y95.786 E598.0000 F6000
G1 X170.975 Y112.654 E598.5000 F6000
G1 X167.914 Y126.461 E599.0000 F6000
G1 X142.612 Y142.580 E599.5000 F6000
G1 X128.805 Y139.519 E600.0000 F6000
; --- LAYER 151 : Z=30.4008mm (Phi-Locked) ---
G1 Z30.4008 F9000
G1 X110.000 Y110.000 E600.5000 F6000
G1 X102.582 Y118.365 E601.0000 F6000
G1 X94.818 Y147.343 E601.5000 F6000
G1 X82.570 Y154.414 E602.0000 F6000
G1 X63.252 Y149.238 E602.5000 F6000
G1 X56.181 Y136.990 E603.0000 F6000
G1 X63.945 Y108.012 E603.5000 F6000
G1 X76.193 Y100.941 E604.0000 F6000
; --- LAYER 152 : Z=30.5964mm (Phi-Locked) ---
G1 Z30.5964 F9000
G1 X110.000 Y110.000 E604.5000 F6000
G1 X109.818 Y98.821 E605.0000 F6000
G1 X95.965 Y72.211 E605.5000 F6000
G1 X100.218 Y58.723 E606.0000 F6000
G1 X117.958 Y49.488 E606.5000 F6000
G1 X131.446 Y53.741 E607.0000 F6000
G1 X145.298 Y80.351 E607.5000 F6000
G1 X141.045 Y93.839 E608.0000 F6000
; --- LAYER 153 : Z=30.7929mm (Phi-Locked) ---
G1 Z30.7929 F9000
G1 X110.000 Y110.000 E608.5000 F6000
G1 X117.687 Y118.119 E609.0000 F6000
G1 X145.878 Y128.379 E609.5000 F6000
G1 X151.854 Y141.196 E610.0000 F6000
G1 X145.014 Y159.990 E610.5000 F6000
G1 X132.197 Y165.967 E611.0000 F6000
G1 X104.006 Y155.706 E611.5000 F6000
G1 X98.029 Y142.889 E612.0000 F6000
; --- LAYER 154 : Z=30.9908mm (Phi-Locked) ---
G1 Z30.9908 F9000
G1 X110.000 Y110.000 E612.5000 F6000
G1 X98.848 Y109.207 E613.0000 F6000
G1 X71.131 Y120.688 E613.5000 F6000
G1 X58.066 Y115.276 E614.0000 F6000
G1 X50.412 Y96.798 E614.5000 F6000
G1 X55.824 Y83.733 E615.0000 F6000
G1 X83.540 Y72.252 E615.5000 F6000
G1 X96.606 Y77.664 E616.0000 F6000
; --- LAYER 155 : Z=31.1902mm (Phi-Locked) ---
G1 Z31.1902 F9000
G1 X110.000 Y110.000 E616.5000 F6000
G1 X118.758 Y103.050 E617.0000 F6000
G1 X131.436 Y75.861 E617.5000 F6000
G1 X144.726 Y71.024 E618.0000 F6000
G1 X162.852 Y79.476 E618.5000 F6000
G1 X167.689 Y92.766 E619.0000 F6000
G1 X155.010 Y119.955 E619.5000 F6000
G1 X141.721 Y124.792 E620.0000 F6000
; --- LAYER 156 : Z=31.3912mm (Phi-Locked) ---
G1 Z31.3912 F9000
G1 X110.000 Y110.000 E620.5000 F6000
G1 X108.238 Y121.041 E621.0000 F6000
G1 X117.260 Y149.652 E621.5000 F6000
G1 X110.730 Y162.196 E622.0000 F6000
G1 X91.655 Y168.211 E622.5000 F6000
G1 X79.111 Y161.680 E623.0000 F6000
G1 X70.090 Y133.069 E623.5000 F6000
G1 X76.620 Y120.525 E624.0000 F6000
; --- LAYER 157 : Z=31.5937mm (Phi-Locked) ---
G1 Z31.5937 F9000
G1 X110.000 Y110.000 E624.5000 F6000
G1 X103.840 Y100.670 E625.0000 F6000
G1 X77.859 Y85.670 E625.5000 F6000
G1 X74.199 Y72.010 E626.0000 F6000
G1 X84.199 Y54.689 E626.5000 F6000
G1 X97.859 Y51.029 E627.0000 F6000
G1 X123.840 Y66.029 E627.5000 F6000
G1 X127.500 Y79.689 E628.0000 F6000
; --- LAYER 158 : Z=31.7975mm (Phi-Locked) ---
G1 Z31.7975 F9000
G1 X110.000 Y110.000 E628.5000 F6000
G1 X120.845 Y112.717 E629.0000 F6000
G1 X150.134 Y106.224 E629.5000 F6000
G1 X162.061 Y113.822 E630.0000 F6000
G1 X166.390 Y133.348 E630.5000 F6000
G1 X158.792 Y145.276 E631.0000 F6000
G1 X129.503 Y151.769 E631.5000 F6000
G1 X117.575 Y144.170 E632.0000 F6000
; --- LAYER 159 : Z=32.0021mm (Phi-Locked) ---
G1 Z32.0021 F9000
G1 X110.000 Y110.000 E632.5000 F6000
G1 X100.168 Y115.324 E633.0000 F6000
G1 X82.961 Y139.898 E633.5000 F6000
G1 X69.034 Y142.354 E634.0000 F6000
G1 X52.651 Y130.882 E634.5000 F6000
G1 X50.195 Y116.955 E635.0000 F6000
G1 X67.402 Y92.381 E635.5000 F6000
G1 X81.330 Y89.925 E636.0000 F6000
; --- LAYER 160 : Z=32.2071mm (Phi-Locked) ---
G1 Z32.2071 F9000
G1 X110.000 Y110.000 E636.5000 F6000
G1 X113.652 Y99.433 E637.0000 F6000
G1 X109.736 Y69.690 E637.5000 F6000
G1 X118.345 Y58.470 E638.0000 F6000
G1 X138.174 Y55.859 E638.5000 F6000
G1 X149.394 Y64.469 E639.0000 F6000
G1 X153.310 Y94.212 E639.5000 F6000
G1 X144.701 Y105.432 E640.0000 F6000
; --- LAYER 161 : Z=32.4119mm (Phi-Locked) ---
G1 Z32.4119 F9000
G1 X110.000 Y110.000 E640.5000 F6000
G1 X114.447 Y120.258 E641.0000 F6000
G1 X137.428 Y139.542 E641.5000 F6000
G1 X138.660 Y153.630 E642.0000 F6000
G1 X125.805 Y168.951 E642.5000 F6000
G1 X111.716 Y170.184 E643.0000 F6000
G1 X88.735 Y150.900 E643.5000 F6000
G1 X87.502 Y136.812 E644.0000 F6000
; --- LAYER 162 : Z=32.616mm (Phi-Locked) ---
G1 Z32.616 F9000
G1 X110.000 Y110.000 E644.5000 F6000
G1 X99.791 Y105.441 E645.0000 F6000
G1 X69.820 Y106.750 E645.5000 F6000
G1 X59.393 Y97.195 E646.0000 F6000
G1 X58.521 Y77.214 E646.5000 F6000
G1 X68.075 Y66.788 E647.0000 F6000
G1 X98.047 Y65.479 E647.5000 F6000
G1 X108.473 Y75.033 E648.0000 F6000
; --- LAYER 163 : Z=32.819mm (Phi-Locked) ---
G1 Z32.819 F9000
G1 X110.000 Y110.000 E648.5000 F6000
G1 X120.607 Y106.464 E649.0000 F6000
G1 X141.820 Y85.251 E649.5000 F6000
G1 X155.962 Y85.251 E650.0000 F6000
G1 X170.104 Y99.393 E650.5000 F6000
G1 X170.104 Y113.536 E651.0000 F6000
G1 X148.891 Y134.749 E651.5000 F6000
G1 X134.749 Y134.749 E652.0000 F6000
; --- LAYER 164 : Z=33.0205mm (Phi-Locked) ---
G1 Z33.0205 F9000
G1 X110.000 Y110.000 E652.5000 F6000
G1 X104.569 Y119.772 E653.0000 F6000
G1 X103.260 Y149.744 E653.5000 F6000
G1 X92.833 Y159.298 E654.0000 F6000
G1 X72.852 Y158.426 E654.5000 F6000
G1 X63.298 Y147.999 E655.0000 F6000
G1 X64.607 Y118.028 E655.5000 F6000
G1 X75.033 Y108.473 E656.0000 F6000
; --- LAYER 165 : Z=33.2204mm (Phi-Locked) ---
G1 Z33.2204 F9000
G1 X110.000 Y110.000 E656.5000 F6000
G1 X107.402 Y99.126 E657.0000 F6000
G1 X88.119 Y76.144 E657.5000 F6000
G1 X89.351 Y62.056 E658.0000 F6000
G1 X104.672 Y49.200 E658.5000 F6000
G1 X118.760 Y50.433 E659.0000 F6000
G1 X138.044 Y73.414 E659.5000 F6000
G1 X136.812 Y87.502 E660.0000 F6000
; --- LAYER 166 : Z=33.4187mm (Phi-Locked) ---
G1 Z33.4187 F9000
G1 X110.000 Y110.000 E660.5000 F6000
G1 X119.262 Y116.262 E661.0000 F6000
G1 X149.005 Y120.178 E661.5000 F6000
G1 X157.614 Y131.398 E662.0000 F6000
G1 X155.004 Y151.227 E662.5000 F6000
G1 X143.784 Y159.836 E663.0000 F6000
G1 X114.041 Y155.920 E663.5000 F6000
G1 X105.432 Y144.701 E664.0000 F6000
; --- LAYER 167 : Z=33.6156mm (Phi-Locked) ---
G1 Z33.6156 F9000
G1 X110.000 Y110.000 E664.5000 F6000
G1 X98.941 Y111.640 E665.0000 F6000
G1 X74.366 Y128.847 E665.5000 F6000
G1 X60.439 Y126.392 E666.0000 F6000
G1 X48.967 Y110.009 E666.5000 F6000
G1 X51.423 Y96.081 E667.0000 F6000
G1 X75.998 Y78.874 E667.5000 F6000
G1 X89.925 Y81.330 E668.0000 F6000
; --- LAYER 168 : Z=33.8114mm (Phi-Locked) ---
G1 Z33.8114 F9000
G1 X110.000 Y110.000 E668.5000 F6000
G1 X117.046 Y101.319 E669.0000 F6000
G1 X123.539 Y72.030 E669.5000 F6000
G1 X135.466 Y64.432 E670.0000 F6000
G1 X154.992 Y68.761 E670.5000 F6000
G1 X162.591 Y80.688 E671.0000 F6000
G1 X156.098 Y109.977 E671.5000 F6000
G1 X144.170 Y117.575 E672.0000 F6000
; --- LAYER 169 : Z=34.0066mm (Phi-Locked) ---
G1 Z34.0066 F9000
G1 X110.000 Y110.000 E672.5000 F6000
G1 X110.670 Y121.160 E673.0000 F6000
G1 X125.670 Y147.141 E673.5000 F6000
G1 X122.010 Y160.801 E674.0000 F6000
G1 X104.689 Y170.801 E674.5000 F6000
G1 X91.029 Y167.141 E675.0000 F6000
G1 X76.029 Y141.160 E675.5000 F6000
G1 X79.689 Y127.500 E676.0000 F6000
; --- LAYER 170 : Z=34.2016mm (Phi-Locked) ---
G1 Z34.2016 F9000
G1 X110.000 Y110.000 E676.5000 F6000
G1 X101.966 Y102.224 E677.0000 F6000
G1 X73.355 Y93.203 E677.5000 F6000
G1 X66.825 Y80.659 E678.0000 F6000
G1 X72.839 Y61.585 E678.5000 F6000
G1 X85.383 Y55.055 E679.0000 F6000
G1 X113.995 Y64.076 E679.5000 F6000
G1 X120.525 Y76.620 E680.0000 F6000
; --- LAYER 171 : Z=34.3969mm (Phi-Locked) ---
G1 Z34.3969 F9000
G1 X110.000 Y110.000 E680.5000 F6000
G1 X121.176 Y110.305 E681.0000 F6000
G1 X148.365 Y97.627 E681.5000 F6000
G1 X161.655 Y102.464 E682.0000 F6000
G1 X170.107 Y120.590 E682.5000 F6000
G1 X165.270 Y133.879 E683.0000 F6000
G1 X138.081 Y146.558 E683.5000 F6000
G1 X124.792 Y141.721 E684.0000 F6000
; --- LAYER 172 : Z=34.593mm (Phi-Locked) ---
G1 Z34.593 F9000
G1 X110.000 Y110.000 E684.5000 F6000
G1 X101.554 Y117.325 E685.0000 F6000
G1 X90.073 Y145.042 E685.5000 F6000
G1 X77.008 Y150.454 E686.0000 F6000
G1 X58.530 Y142.800 E686.5000 F6000
G1 X53.118 Y129.734 E687.0000 F6000
G1 X64.599 Y102.018 E687.5000 F6000
G1 X77.664 Y96.606 E688.0000 F6000
; --- LAYER 173 : Z=34.7903mm (Phi-Locked) ---
G1 Z34.7903 F9000
G1 X110.000 Y110.000 E688.5000 F6000
G1 X111.278 Y98.893 E689.0000 F6000
G1 X101.018 Y70.702 E689.5000 F6000
G1 X106.994 Y57.885 E690.0000 F6000
G1 X125.788 Y51.045 E690.5000 F6000
G1 X138.605 Y57.021 E691.0000 F6000
G1 X148.866 Y85.212 E691.5000 F6000
G1 X142.889 Y98.029 E692.0000 F6000
; --- LAYER 174 : Z=34.989mm (Phi-Locked) ---
G1 Z34.989 F9000
G1 X110.000 Y110.000 E692.5000 F6000
G1 X116.561 Y119.053 E693.0000 F6000
G1 X143.172 Y132.905 E693.5000 F6000
G1 X147.424 Y146.393 E694.0000 F6000
G1 X138.189 Y164.133 E694.5000 F6000
G1 X124.702 Y168.385 E695.0000 F6000
G1 X98.091 Y154.533 E695.5000 F6000
G1 X93.839 Y141.045 E696.0000 F6000
; --- LAYER 175 : Z=35.1894mm (Phi-Locked) ---
G1 Z35.1894 F9000
G1 X110.000 Y110.000 E696.5000 F6000
G1 X99.047 Y107.759 E697.0000 F6000
G1 X70.069 Y115.523 E697.5000 F6000
G1 X57.821 Y108.452 E698.0000 F6000
G1 X52.645 Y89.134 E698.5000 F6000
G1 X59.716 Y76.886 E699.0000 F6000
G1 X88.694 Y69.122 E699.5000 F6000
G1 X100.941 Y76.193 E700.0000 F6000
; --- LAYER 176 : Z=35.3913mm (Phi-Locked) ---
G1 Z35.3913 F9000
G1 X110.000 Y110.000 E700.5000 F6000
G1 X119.590 Y104.253 E701.0000 F6000
G1 X135.709 Y78.951 E701.5000 F6000
G1 X149.516 Y75.890 E702.0000 F6000
G1 X166.384 Y86.636 E702.5000 F6000
G1 X169.445 Y100.443 E703.0000 F6000
G1 X153.326 Y125.745 E703.5000 F6000
G1 X139.519 Y128.805 E704.0000 F6000
; --- LAYER 177 : Z=35.5945mm (Phi-Locked) ---
G1 Z35.5945 F9000
G1 X110.000 Y110.000 E704.5000 F6000
G1 X106.812 Y120.716 E705.0000 F6000
G1 X112.022 Y150.261 E705.5000 F6000
G1 X103.910 Y161.845 E706.0000 F6000
G1 X84.214 Y165.318 E706.5000 F6000
G1 X72.630 Y157.206 E707.0000 F6000
G1 X67.420 Y127.662 E707.5000 F6000
G1 X75.532 Y116.078 E708.0000 F6000
; --- LAYER 178 : Z=35.7989mm (Phi-Locked) ---
G1 Z35.7989 F9000
G1 X110.000 Y110.000 E708.5000 F6000
G1 X105.110 Y99.946 E709.0000 F6000
G1 X81.310 Y81.683 E709.5000 F6000
G1 X79.464 Y67.662 E710.0000 F6000
G1 X91.639 Y51.795 E710.5000 F6000
G1 X105.660 Y49.949 E711.0000 F6000
G1 X129.461 Y68.211 E711.5000 F6000
G1 X131.307 Y82.233 E712.0000 F6000
; --- LAYER 179 : Z=36.0038mm (Phi-Locked) ---
G1 Z36.0038 F9000
G1 X110.000 Y110.000 E712.5000 F6000
G1 X120.398 Y114.109 E713.0000 F6000
G1 X150.284 Y111.495 E713.5000 F6000
G1 X161.117 Y120.585 E714.0000 F6000
G1 X162.860 Y140.509 E714.5000 F6000
G1 X153.770 Y151.343 E715.0000 F6000
G1 X123.884 Y153.957 E715.5000 F6000
G1 X113.050 Y144.867 E716.0000 F6000
; --- LAYER 180 : Z=36.2087mm (Phi-Locked) ---
G1 Z36.2087 F9000
G1 X110.000 Y110.000 E716.5000 F6000
G1 X99.558 Y113.995 E717.0000 F6000
G1 X79.290 Y136.113 E717.5000 F6000
G1 X65.161 Y136.730 E718.0000 F6000
G1 X50.416 Y123.218 E718.5000 F6000
G1 X49.799 Y109.090 E719.0000 F6000
G1 X70.067 Y86.971 E719.5000 F6000
G1 X84.195 Y86.354 E720.0000 F6000
; --- LAYER 181 : Z=36.4132mm (Phi-Locked) ---
G1 Z36.4132 F9000
G1 X110.000 Y110.000 E720.5000 F6000
G1 X115.000 Y100.000 E721.0000 F6000
G1 X115.000 Y70.000 E721.5000 F6000
G1 X125.000 Y60.000 E722.0000 F6000
G1 X145.000 Y60.000 E722.5000 F6000
G1 X155.000 Y70.000 E723.0000 F6000
G1 X155.000 Y100.000 E723.5000 F6000
G1 X145.000 Y110.000 E724.0000 F6000
; --- LAYER 182 : Z=36.6167mm (Phi-Locked) ---
G1 Z36.6167 F9000
G1 X110.000 Y110.000 E724.5000 F6000
G1 X113.070 Y120.751 E725.0000 F6000
G1 X133.337 Y142.869 E725.5000 F6000
G1 X132.720 Y156.998 E726.0000 F6000
G1 X117.975 Y170.510 E726.5000 F6000
G1 X103.846 Y169.893 E727.0000 F6000
G1 X83.578 Y147.774 E727.5000 F6000
G1 X84.195 Y133.646 E728.0000 F6000
; --- LAYER 183 : Z=36.8188mm (Phi-Locked) ---
G1 Z36.8188 F9000
G1 X110.000 Y110.000 E728.5000 F6000
G1 X100.474 Y104.147 E729.0000 F6000
G1 X70.588 Y101.533 E729.5000 F6000
G1 X61.498 Y90.699 E730.0000 F6000
G1 X63.241 Y70.775 E730.5000 F6000
G1 X74.074 Y61.685 E731.0000 F6000
G1 X103.960 Y64.300 E731.5000 F6000
G1 X113.050 Y75.133 E732.0000 F6000
; --- LAYER 184 : Z=37.0194mm (Phi-Locked) ---
G1 Z37.0194 F9000
G1 X110.000 Y110.000 E732.5000 F6000
G1 X120.977 Y107.879 E733.0000 F6000
G1 X144.778 Y89.616 E733.5000 F6000
G1 X158.799 Y91.462 E734.0000 F6000
G1 X170.974 Y107.329 E734.5000 F6000
G1 X169.128 Y121.350 E735.0000 F6000
G1 X145.328 Y139.613 E735.5000 F6000
G1 X131.307 Y137.767 E736.0000 F6000
; --- LAYER 185 : Z=37.2184mm (Phi-Locked) ---
G1 Z37.2184 F9000
G1 X110.000 Y110.000 E736.5000 F6000
G1 X103.339 Y118.980 E737.0000 F6000
G1 X98.130 Y148.524 E737.5000 F6000
G1 X86.545 Y156.636 E738.0000 F6000
G1 X66.849 Y153.163 E738.5000 F6000
G1 X58.738 Y141.578 E739.0000 F6000
G1 X63.947 Y112.034 E739.5000 F6000
G1 X75.532 Y103.922 E740.0000 F6000
; --- LAYER 186 : Z=37.4158mm (Phi-Locked) ---
G1 Z37.4158 F9000
G1 X110.000 Y110.000 E740.5000 F6000
G1 X108.844 Y98.880 E741.0000 F6000
G1 X92.725 Y73.578 E741.5000 F6000
G1 X95.786 Y59.771 E742.0000 F6000
G1 X112.654 Y49.025 E742.5000 F6000
G1 X126.461 Y52.086 E743.0000 F6000
G1 X142.580 Y77.388 E743.5000 F6000
G1 X139.519 Y91.195 E744.0000 F6000
; --- LAYER 187 : Z=37.6121mm (Phi-Locked) ---
G1 Z37.6121 F9000
G1 X110.000 Y110.000 E744.5000 F6000
G1 X118.365 Y117.418 E745.0000 F6000
G1 X147.343 Y125.182 E745.5000 F6000
G1 X154.414 Y137.430 E746.0000 F6000
G1 X149.238 Y156.748 E746.5000 F6000
G1 X136.990 Y163.819 E747.0000 F6000
G1 X108.012 Y156.055 E747.5000 F6000
G1 X100.941 Y143.807 E748.0000 F6000
; --- LAYER 188 : Z=37.8075mm (Phi-Locked) ---
G1 Z37.8075 F9000
G1 X110.000 Y110.000 E748.5000 F6000
G1 X98.821 Y110.182 E749.0000 F6000
G1 X72.211 Y124.035 E749.5000 F6000
G1 X58.723 Y119.782 E750.0000 F6000
G1 X49.488 Y102.042 E750.5000 F6000
G1 X53.741 Y88.554 E751.0000 F6000
G1 X80.351 Y74.702 E751.5000 F6000
G1 X93.839 Y78.955 E752.0000 F6000
; --- LAYER 189 : Z=38.0025mm (Phi-Locked) ---
G1 Z38.0025 F9000
G1 X110.000 Y110.000 E752.5000 F6000
G1 X118.119 Y102.313 E753.0000 F6000
G1 X128.379 Y74.122 E753.5000 F6000
G1 X141.196 Y68.146 E754.0000 F6000
G1 X159.990 Y74.986 E754.5000 F6000
G1 X165.967 Y87.803 E755.0000 F6000
G1 X155.706 Y115.994 E755.5000 F6000
G1 X142.889 Y121.971 E756.0000 F6000
; --- LAYER 190 : Z=38.1976mm (Phi-Locked) ---
G1 Z38.1976 F9000
G1 X110.000 Y110.000 E756.5000 F6000
G1 X109.207 Y121.152 E757.0000 F6000
G1 X120.688 Y148.869 E757.5000 F6000
G1 X115.276 Y161.934 E758.0000 F6000
G1 X96.798 Y169.588 E758.5000 F6000
G1 X83.733 Y164.176 E759.0000 F6000
G1 X72.252 Y136.460 E759.5000 F6000
G1 X77.664 Y123.394 E760.0000 F6000
; --- LAYER 191 : Z=38.3934mm (Phi-Locked) ---
G1 Z38.3934 F9000
G1 X110.000 Y110.000 E760.5000 F6000
G1 X103.050 Y101.242 E761.0000 F6000
G1 X75.861 Y88.564 E761.5000 F6000
G1 X71.024 Y75.274 E762.0000 F6000
G1 X79.476 Y57.148 E762.5000 F6000
G1 X92.766 Y52.311 E763.0000 F6000
G1 X119.955 Y64.990 E763.5000 F6000
G1 X124.792 Y78.279 E764.0000 F6000
; --- LAYER 192 : Z=38.5901mm (Phi-Locked) ---
G1 Z38.5901 F9000
G1 X110.000 Y110.000 E764.5000 F6000
G1 X121.041 Y111.762 E765.0000 F6000
G1 X149.652 Y102.740 E765.5000 F6000
G1 X162.196 Y109.270 E766.0000 F6000
G1 X168.211 Y128.345 E766.5000 F6000
G1 X161.680 Y140.889 E767.0000 F6000
G1 X133.069 Y149.910 E767.5000 F6000
G1 X120.525 Y143.380 E768.0000 F6000
; --- LAYER 193 : Z=38.7882mm (Phi-Locked) ---
G1 Z38.7882 F9000
G1 X110.000 Y110.000 E768.5000 F6000
G1 X100.670 Y116.160 E769.0000 F6000
G1 X85.670 Y142.141 E769.5000 F6000
G1 X72.010 Y145.801 E770.0000 F6000
G1 X54.689 Y135.801 E770.5000 F6000
G1 X51.029 Y122.141 E771.0000 F6000
G1 X66.029 Y96.160 E771.5000 F6000
G1 X79.689 Y92.500 E772.0000 F6000
; --- LAYER 194 : Z=38.9878mm (Phi-Locked) ---
G1 Z38.9878 F9000
G1 X110.000 Y110.000 E772.5000 F6000
G1 X112.717 Y99.155 E773.0000 F6000
G1 X106.224 Y69.866 E773.5000 F6000
G1 X113.822 Y57.939 E774.0000 F6000
G1 X133.348 Y53.610 E774.5000 F6000
G1 X145.276 Y61.208 E775.0000 F6000
G1 X151.769 Y90.497 E775.5000 F6000
G1 X144.170 Y102.425 E776.0000 F6000
; --- LAYER 195 : Z=39.1891mm (Phi-Locked) ---
G1 Z39.1891 F9000
G1 X110.000 Y110.000 E776.5000 F6000
G1 X115.324 Y119.832 E777.0000 F6000
G1 X139.898 Y137.039 E777.5000 F6000
G1 X142.354 Y150.966 E778.0000 F6000
G1 X130.882 Y167.349 E778.5000 F6000
G1 X116.955 Y169.805 E779.0000 F6000
G1 X92.381 Y152.598 E779.5000 F6000
G1 X89.925 Y138.670 E780.0000 F6000
; --- LAYER 196 : Z=39.3918mm (Phi-Locked) ---
G1 Z39.3918 F9000
G1 X110.000 Y110.000 E780.5000 F6000
G1 X99.433 Y106.348 E781.0000 F6000
G1 X69.690 Y110.264 E781.5000 F6000
G1 X58.470 Y101.655 E782.0000 F6000
G1 X55.859 Y81.826 E782.5000 F6000
G1 X64.469 Y70.606 E783.0000 F6000
G1 X94.212 Y66.690 E783.5000 F6000
G1 X105.432 Y75.299 E784.0000 F6000
; --- LAYER 197 : Z=39.5957mm (Phi-Locked) ---
G1 Z39.5957 F9000
G1 X110.000 Y110.000 E784.5000 F6000
G1 X120.258 Y105.553 E785.0000 F6000
G1 X139.542 Y82.572 E785.5000 F6000
G1 X153.630 Y81.340 E786.0000 F6000
G1 X168.951 Y94.195 E786.5000 F6000
G1 X170.184 Y108.284 E787.0000 F6000
G1 X150.900 Y131.265 E787.5000 F6000
G1 X136.812 Y132.498 E788.0000 F6000
; --- LAYER 198 : Z=39.8005mm (Phi-Locked) ---
G1 Z39.8005 F9000
G1 X110.000 Y110.000 E788.5000 F6000
G1 X105.441 Y120.209 E789.0000 F6000
G1 X106.750 Y150.180 E789.5000 F6000
G1 X97.195 Y160.607 E790.0000 F6000
G1 X77.214 Y161.479 E790.5000 F6000
G1 X66.788 Y151.925 E791.0000 F6000
G1 X65.479 Y121.953 E791.5000 F6000
G1 X75.033 Y111.527 E792.0000 F6000
; --- LAYER 199 : Z=40.0055mm (Phi-Locked) ---
G1 Z40.0055 F9000
G1 X110.000 Y110.000 E792.5000 F6000
G1 X106.464 Y99.393 E793.0000 F6000
G1 X85.251 Y78.180 E793.5000 F6000
G1 X85.251 Y64.038 E794.0000 F6000
G1 X99.393 Y49.896 E794.5000 F6000
G1 X113.536 Y49.896 E795.0000 F6000
G1 X134.749 Y71.109 E795.5000 F6000
G1 X134.749 Y85.251 E796.0000 F6000
; --- LAYER 200 : Z=40.2102mm (Phi-Locked) ---
G1 Z40.2102 F9000
G1 X110.000 Y110.000 E796.5000 F6000
G1 X119.772 Y115.431 E797.0000 F6000
G1 X149.744 Y116.740 E797.5000 F6000
G1 X159.298 Y127.167 E798.0000 F6000
G1 X158.426 Y147.148 E798.5000 F6000
G1 X147.999 Y156.702 E799.0000 F6000
G1 X118.028 Y155.393 E799.5000 F6000
G1 X108.473 Y144.967 E800.0000 F6000
; --- LAYER 201 : Z=40.4141mm (Phi-Locked) ---
G1 Z40.4141 F9000
G1 X110.000 Y110.000 E800.5000 F6000
G1 X99.126 Y112.598 E801.0000 F6000
G1 X76.144 Y131.881 E801.5000 F6000
G1 X62.056 Y130.649 E802.0000 F6000
G1 X49.200 Y115.328 E802.5000 F6000
G1 X50.433 Y101.240 E803.0000 F6000
G1 X73.414 Y81.956 E803.5000 F6000
G1 X87.502 Y83.188 E804.0000 F6000
; --- LAYER 202 : Z=40.6169mm (Phi-Locked) ---
G1 Z40.6169 F9000
G1 X110.000 Y110.000 E804.5000 F6000
G1 X116.262 Y100.738 E805.0000 F6000
G1 X120.178 Y70.995 E805.5000 F6000
G1 X131.398 Y62.386 E806.0000 F6000
G1 X151.227 Y64.996 E806.5000 F6000
G1 X159.836 Y76.216 E807.0000 F6000
G1 X155.920 Y105.959 E807.5000 F6000
G1 X144.701 Y114.568 E808.0000 F6000
; --- LAYER 203 : Z=40.8181mm (Phi-Locked) ---
G1 Z40.8181 F9000
G1 X110.000 Y110.000 E808.5000 F6000
G1 X111.640 Y121.059 E809.0000 F6000
G1 X128.847 Y145.634 E809.5000 F6000
G1 X126.392 Y159.561 E810.0000 F6000
G1 X110.009 Y171.033 E810.5000 F6000
G1 X96.081 Y168.577 E811.0000 F6000
G1 X78.874 Y144.002 E811.5000 F6000
G1 X81.330 Y130.075 E812.0000 F6000
; --- LAYER 204 : Z=41.0178mm (Phi-Locked) ---
G1 Z41.0178 F9000
G1 X110.000 Y110.000 E812.5000 F6000
G1 X101.319 Y102.954 E813.0000 F6000
G1 X72.030 Y96.461 E813.5000 F6000
G1 X64.432 Y84.534 E814.0000 F6000
G1 X68.761 Y65.008 E814.5000 F6000
G1 X80.688 Y57.409 E815.0000 F6000
G1 X109.977 Y63.902 E815.5000 F6000
G1 X117.575 Y75.830 E816.0000 F6000
; --- LAYER 205 : Z=41.2159mm (Phi-Locked) ---
G1 Z41.2159 F9000
G1 X110.000 Y110.000 E816.5000 F6000
G1 X121.160 Y109.330 E817.0000 F6000
G1 X147.141 Y94.330 E817.5000 F6000
G1 X160.801 Y97.990 E818.0000 F6000
G1 X170.801 Y115.311 E818.5000 F6000
G1 X167.141 Y128.971 E819.0000 F6000
G1 X141.160 Y143.971 E819.5000 F6000
G1 X127.500 Y140.311 E820.0000 F6000
; --- LAYER 206 : Z=41.4126mm (Phi-Locked) ---
G1 Z41.4126 F9000
G1 X110.000 Y110.000 E820.5000 F6000
G1 X102.224 Y118.034 E821.0000 F6000
G1 X93.203 Y146.645 E821.5000 F6000
G1 X80.659 Y153.175 E822.0000 F6000
G1 X61.585 Y147.161 E822.5000 F6000
G1 X55.055 Y134.617 E823.0000 F6000
G1 X64.076 Y106.005 E823.5000 F6000
G1 X76.620 Y99.475 E824.0000 F6000
; --- LAYER 207 : Z=41.6083mm (Phi-Locked) ---
G1 Z41.6083 F9000
G1 X110.000 Y110.000 E824.5000 F6000
G1 X110.305 Y98.824 E825.0000 F6000
G1 X97.627 Y71.635 E825.5000 F6000
G1 X102.464 Y58.345 E826.0000 F6000
G1 X120.590 Y49.893 E826.5000 F6000
G1 X133.879 Y54.730 E827.0000 F6000
G1 X146.558 Y81.919 E827.5000 F6000
G1 X141.721 Y95.208 E828.0000 F6000
; --- LAYER 208 : Z=41.8034mm (Phi-Locked) ---
G1 Z41.8034 F9000
G1 X110.000 Y110.000 E828.5000 F6000
G1 X117.325 Y118.446 E829.0000 F6000
G1 X145.042 Y129.927 E829.5000 F6000
G1 X150.454 Y142.992 E830.0000 F6000
G1 X142.800 Y161.470 E830.5000 F6000
G1 X129.734 Y166.882 E831.0000 F6000
G1 X102.018 Y155.401 E831.5000 F6000
G1 X96.606 Y142.336 E832.0000 F6000
; --- LAYER 209 : Z=41.9984mm (Phi-Locked) ---
G1 Z41.9984 F9000
G1 X110.000 Y110.000 E832.5000 F6000
G1 X98.893 Y108.722 E833.0000 F6000
G1 X70.702 Y118.982 E833.5000 F6000
G1 X57.885 Y113.006 E834.0000 F6000
G1 X51.045 Y94.212 E834.5000 F6000
G1 X57.021 Y81.395 E835.0000 F6000
G1 X85.212 Y71.134 E835.5000 F6000
G1 X98.029 Y77.111 E836.0000 F6000
; --- LAYER 210 : Z=42.1939mm (Phi-Locked) ---
G1 Z42.1939 F9000
G1 X110.000 Y110.000 E836.5000 F6000
G1 X119.053 Y103.439 E837.0000 F6000
G1 X132.905 Y76.828 E837.5000 F6000
G1 X146.393 Y72.576 E838.0000 F6000
G1 X164.133 Y81.811 E838.5000 F6000
G1 X168.385 Y95.298 E839.0000 F6000
G1 X154.533 Y121.909 E839.5000 F6000
G1 X141.045 Y126.161 E840.0000 F6000
; --- LAYER 211 : Z=42.3901mm (Phi-Locked) ---
G1 Z42.3901 F9000
G1 X110.000 Y110.000 E840.5000 F6000
G1 X107.759 Y120.953 E841.0000 F6000
G1 X115.523 Y149.931 E841.5000 F6000
G1 X108.452 Y162.179 E842.0000 F6000
G1 X89.134 Y167.355 E842.5000 F6000
G1 X76.886 Y160.284 E843.0000 F6000
G1 X69.122 Y131.306 E843.5000 F6000
G1 X76.193 Y119.059 E844.0000 F6000
; --- LAYER 212 : Z=42.5876mm (Phi-Locked) ---
G1 Z42.5876 F9000
G1 X110.000 Y110.000 E844.5000 F6000
G1 X104.253 Y100.410 E845.0000 F6000
G1 X78.951 Y84.291 E845.5000 F6000
G1 X75.890 Y70.484 E846.0000 F6000
G1 X86.636 Y53.616 E846.5000 F6000
G1 X100.443 Y50.555 E847.0000 F6000
G1 X125.745 Y66.674 E847.5000 F6000
G1 X128.805 Y80.481 E848.0000 F6000
; --- LAYER 213 : Z=42.7866mm (Phi-Locked) ---
G1 Z42.7866 F9000
G1 X110.000 Y110.000 E848.5000 F6000
G1 X120.716 Y113.188 E849.0000 F6000
G1 X150.261 Y107.978 E849.5000 F6000
G1 X161.845 Y116.090 E850.0000 F6000
G1 X165.318 Y135.786 E850.5000 F6000
G1 X157.206 Y147.370 E851.0000 F6000
G1 X127.662 Y152.580 E851.5000 F6000
G1 X116.078 Y144.468 E852.0000 F6000
; --- LAYER 214 : Z=42.9872mm (Phi-Locked) ---
G1 Z42.9872 F9000
G1 X110.000 Y110.000 E852.5000 F6000
G1 X99.946 Y114.890 E853.0000 F6000
G1 X81.683 Y138.690 E853.5000 F6000
G1 X67.662 Y140.536 E854.0000 F6000
G1 X51.795 Y128.361 E854.5000 F6000
G1 X49.949 Y114.340 E855.0000 F6000
G1 X68.211 Y90.539 E855.5000 F6000
G1 X82.233 Y88.693 E856.0000 F6000
; --- LAYER 215 : Z=43.1893mm (Phi-Locked) ---
G1 Z43.1893 F9000
G1 X110.000 Y110.000 E856.5000 F6000
G1 X114.109 Y99.602 E857.0000 F6000
G1 X111.495 Y69.716 E857.5000 F6000
G1 X120.585 Y58.883 E858.0000 F6000
G1 X140.509 Y57.140 E858.5000 F6000
G1 X151.343 Y66.230 E859.0000 F6000
G1 X153.957 Y96.116 E859.5000 F6000
G1 X144.867 Y106.950 E860.0000 F6000
; --- LAYER 216 : Z=43.3927mm (Phi-Locked) ---
G1 Z43.3927 F9000
G1 X110.000 Y110.000 E860.5000 F6000
G1 X113.995 Y120.442 E861.0000 F6000
G1 X136.113 Y140.710 E861.5000 F6000
G1 X136.730 Y154.839 E862.0000 F6000
G1 X123.218 Y169.584 E862.5000 F6000
G1 X109.090 Y170.201 E863.0000 F6000
G1 X86.971 Y149.933 E863.5000 F6000
G1 X86.354 Y135.805 E864.0000 F6000
; --- LAYER 217 : Z=43.5972mm (Phi-Locked) ---
G1 Z43.5972 F9000
G1 X110.000 Y110.000 E864.5000 F6000
G1 X100.000 Y105.000 E865.0000 F6000
G1 X70.000 Y105.000 E865.5000 F6000
G1 X60.000 Y95.000 E866.0000 F6000
G1 X60.000 Y75.000 E866.5000 F6000
G1 X70.000 Y65.000 E867.0000 F6000
G1 X100.000 Y65.000 E867.5000 F6000
G1 X110.000 Y75.000 E868.0000 F6000
; --- LAYER 218 : Z=43.8021mm (Phi-Locked) ---
G1 Z43.8021 F9000
G1 X110.000 Y110.000 E868.5000 F6000
G1 X120.751 Y106.930 E869.0000 F6000
G1 X142.869 Y86.663 E869.5000 F6000
G1 X156.998 Y87.280 E870.0000 F6000
G1 X170.510 Y102.025 E870.5000 F6000
G1 X169.893 Y116.154 E871.0000 F6000
G1 X147.774 Y136.422 E871.5000 F6000
G1 X133.646 Y135.805 E872.0000 F6000
; --- LAYER 219 : Z=44.0071mm (Phi-Locked) ---
G1 Z44.0071 F9000
G1 X110.000 Y110.000 E872.5000 F6000
G1 X104.147 Y119.526 E873.0000 F6000
G1 X101.533 Y149.412 E873.5000 F6000
G1 X90.699 Y158.502 E874.0000 F6000
G1 X70.775 Y156.759 E874.5000 F6000
G1 X61.685 Y145.926 E875.0000 F6000
G1 X64.300 Y116.040 E875.5000 F6000
G1 X75.133 Y106.950 E876.0000 F6000
; --- LAYER 220 : Z=44.2114mm (Phi-Locked) ---
G1 Z44.2114 F9000
G1 X110.000 Y110.000 E876.5000 F6000
G1 X107.879 Y99.023 E877.0000 F6000
G1 X89.616 Y75.222 E877.5000 F6000
G1 X91.462 Y61.201 E878.0000 F6000
G1 X107.329 Y49.026 E878.5000 F6000
G1 X121.350 Y50.872 E879.0000 F6000
G1 X139.613 Y74.672 E879.5000 F6000
G1 X137.767 Y88.693 E880.0000 F6000
; --- LAYER 221 : Z=44.4147mm (Phi-Locked) ---
G1 Z44.4147 F9000
G1 X110.000 Y110.000 E880.5000 F6000
G1 X118.980 Y116.661 E881.0000 F6000
G1 X148.524 Y121.870 E881.5000 F6000
G1 X156.636 Y133.455 E882.0000 F6000
G1 X153.163 Y153.151 E882.5000 F6000
G1 X141.578 Y161.262 E883.0000 F6000
G1 X112.034 Y156.053 E883.5000 F6000
G1 X103.922 Y144.468 E884.0000 F6000
; --- LAYER 222 : Z=44.6166mm (Phi-Locked) ---
G1 Z44.6166 F9000
G1 X110.000 Y110.000 E884.5000 F6000
G1 X98.880 Y111.156 E885.0000 F6000
G1 X73.578 Y127.275 E885.5000 F6000
G1 X59.771 Y124.214 E886.0000 F6000
G1 X49.025 Y107.346 E886.5000 F6000
G1 X52.086 Y93.539 E887.0000 F6000
G1 X77.388 Y77.420 E887.5000 F6000
G1 X91.195 Y80.481 E888.0000 F6000
; --- LAYER 223 : Z=44.8169mm (Phi-Locked) ---
G1 Z44.8169 F9000
G1 X110.000 Y110.000 E888.5000 F6000
G1 X117.418 Y101.635 E889.0000 F6000
G1 X125.182 Y72.657 E889.5000 F6000
G1 X137.430 Y65.586 E890.0000 F6000
G1 X156.748 Y70.762 E890.5000 F6000
G1 X163.819 Y83.010 E891.0000 F6000
G1 X156.055 Y111.988 E891.5000 F6000
G1 X143.807 Y119.059 E892.0000 F6000
; --- LAYER 224 : Z=45.0157mm (Phi-Locked) ---
G1 Z45.0157 F9000
G1 X110.000 Y110.000 E892.5000 F6000
G1 X110.182 Y121.179 E893.0000 F6000
G1 X124.035 Y147.789 E893.5000 F6000
G1 X119.782 Y161.277 E894.0000 F6000
G1 X102.042 Y170.512 E894.5000 F6000
G1 X88.554 Y166.259 E895.0000 F6000
G1 X74.702 Y139.649 E895.5000 F6000
G1 X78.955 Y126.161 E896.0000 F6000
; --- LAYER 225 : Z=45.2129mm (Phi-Locked) ---
G1 Z45.2129 F9000
G1 X110.000 Y110.000 E896.5000 F6000
G1 X102.313 Y101.881 E897.0000 F6000
G1 X74.122 Y91.621 E897.5000 F6000
G1 X68.146 Y78.804 E898.0000 F6000
G1 X74.986 Y60.010 E898.5000 F6000
G1 X87.803 Y54.033 E899.0000 F6000
G1 X115.994 Y64.294 E899.5000 F6000
G1 X121.971 Y77.111 E900.0000 F6000
; --- LAYER 226 : Z=45.409mm (Phi-Locked) ---
G1 Z45.409 F9000
G1 X110.000 Y110.000 E900.5000 F6000
G1 X121.152 Y110.793 E901.0000 F6000
G1 X148.869 Y99.312 E901.5000 F6000
G1 X161.934 Y104.724 E902.0000 F6000
G1 X169.588 Y123.202 E902.5000 F6000
G1 X164.176 Y136.267 E903.0000 F6000
G1 X136.460 Y147.748 E903.5000 F6000
G1 X123.394 Y142.336 E904.0000 F6000
; --- LAYER 227 : Z=45.6043mm (Phi-Locked) ---
G1 Z45.6043 F9000
G1 X110.000 Y110.000 E904.5000 F6000
G1 X101.242 Y116.950 E905.0000 F6000
G1 X88.564 Y144.139 E905.5000 F6000
G1 X75.274 Y148.976 E906.0000 F6000
G1 X57.148 Y140.524 E906.5000 F6000
G1 X52.311 Y127.234 E907.0000 F6000
G1 X64.990 Y100.045 E907.5000 F6000
G1 X78.279 Y95.208 E908.0000 F6000
; --- LAYER 228 : Z=45.7993mm (Phi-Locked) ---
G1 Z45.7993 F9000
G1 X110.000 Y110.000 E908.5000 F6000
G1 X111.762 Y98.959 E909.0000 F6000
G1 X102.740 Y70.348 E909.5000 F6000
G1 X109.270 Y57.804 E910.0000 F6000
G1 X128.345 Y51.789 E910.5000 F6000
G1 X140.889 Y58.320 E911.0000 F6000
G1 X149.910 Y86.931 E911.5000 F6000
G1 X143.380 Y99.475 E912.0000 F6000
; --- LAYER 229 : Z=45.9945mm (Phi-Locked) ---
G1 Z45.9945 F9000
G1 X110.000 Y110.000 E912.5000 F6000
G1 X116.160 Y119.330 E913.0000 F6000
G1 X142.141 Y134.330 E913.5000 F6000
G1 X145.801 Y147.990 E914.0000 F6000
G1 X135.801 Y165.311 E914.5000 F6000
G1 X122.141 Y168.971 E915.0000 F6000
G1 X96.160 Y153.971 E915.5000 F6000
G1 X92.500 Y140.311 E916.0000 F6000
; --- LAYER 230 : Z=46.1904mm (Phi-Locked) ---
G1 Z46.1904 F9000
G1 X110.000 Y110.000 E916.5000 F6000
G1 X99.155 Y107.283 E917.0000 F6000
G1 X69.866 Y113.776 E917.5000 F6000
G1 X57.939 Y106.178 E918.0000 F6000
G1 X53.610 Y86.652 E918.5000 F6000
G1 X61.208 Y74.724 E919.0000 F6000
G1 X90.497 Y68.231 E919.5000 F6000
G1 X102.425 Y75.830 E920.0000 F6000
; --- LAYER 231 : Z=46.3873mm (Phi-Locked) ---
G1 Z46.3873 F9000
G1 X110.000 Y110.000 E920.5000 F6000
G1 X119.832 Y104.676 E921.0000 F6000
G1 X137.039 Y80.102 E921.5000 F6000
G1 X150.966 Y77.646 E922.0000 F6000
G1 X167.349 Y89.118 E922.5000 F6000
G1 X169.805 Y103.045 E923.0000 F6000
G1 X152.598 Y127.619 E923.5000 F6000
G1 X138.670 Y130.075 E924.0000 F6000
; --- LAYER 232 : Z=46.5856mm (Phi-Locked) ---
G1 Z46.5856 F9000
G1 X110.000 Y110.000 E924.5000 F6000
G1 X106.348 Y120.567 E925.0000 F6000
G1 X110.264 Y150.310 E925.5000 F6000
G1 X101.655 Y161.530 E926.0000 F6000
G1 X81.826 Y164.141 E926.5000 F6000
G1 X70.606 Y155.531 E927.0000 F6000
G1 X66.690 Y125.788 E927.5000 F6000
G1 X75.299 Y114.568 E928.0000 F6000
; --- LAYER 233 : Z=46.7855mm (Phi-Locked) ---
G1 Z46.7855 F9000
G1 X110.000 Y110.000 E928.5000 F6000
G1 X105.553 Y99.742 E929.0000 F6000
G1 X82.572 Y80.458 E929.5000 F6000
G1 X81.340 Y66.370 E930.0000 F6000
G1 X94.195 Y51.049 E930.5000 F6000
G1 X108.284 Y49.816 E931.0000 F6000
G1 X131.265 Y69.100 E931.5000 F6000
G1 X132.498 Y83.188 E932.0000 F6000
; --- LAYER 234 : Z=46.987mm (Phi-Locked) ---
G1 Z46.987 F9000
G1 X110.000 Y110.000 E932.5000 F6000
G1 X120.209 Y114.559 E933.0000 F6000
G1 X150.180 Y113.250 E933.5000 F6000
G1 X160.607 Y122.805 E934.0000 F6000
G1 X161.479 Y142.786 E934.5000 F6000
G1 X151.925 Y153.212 E935.0000 F6000
G1 X121.953 Y154.521 E935.5000 F6000
G1 X111.527 Y144.967 E936.0000 F6000
; --- LAYER 235 : Z=47.1899mm (Phi-Locked) ---
G1 Z47.1899 F9000
G1 X110.000 Y110.000 E936.5000 F6000
G1 X99.393 Y113.536 E937.0000 F6000
G1 X78.180 Y134.749 E937.5000 F6000
G1 X64.038 Y134.749 E938.0000 F6000
G1 X49.896 Y120.607 E938.5000 F6000
G1 X49.896 Y106.464 E939.0000 F6000
G1 X71.109 Y85.251 E939.5000 F6000
G1 X85.251 Y85.251 E940.0000 F6000
; --- LAYER 236 : Z=47.394mm (Phi-Locked) ---
G1 Z47.394 F9000
G1 X110.000 Y110.000 E940.5000 F6000
G1 X115.431 Y100.228 E941.0000 F6000
G1 X116.740 Y70.256 E941.5000 F6000
G1 X127.167 Y60.702 E942.0000 F6000
G1 X147.148 Y61.574 E942.5000 F6000
G1 X156.702 Y72.001 E943.0000 F6000
G1 X155.393 Y101.972 E943.5000 F6000
G1 X144.967 Y111.527 E944.0000 F6000
; --- LAYER 237 : Z=47.5988mm (Phi-Locked) ---
G1 Z47.5988 F9000
G1 X110.000 Y110.000 E944.5000 F6000
G1 X112.598 Y120.874 E945.0000 F6000
G1 X131.881 Y143.856 E945.5000 F6000
G1 X130.649 Y157.944 E946.0000 F6000
G1 X115.328 Y170.800 E946.5000 F6000
G1 X101.240 Y169.567 E947.0000 F6000
G1 X81.956 Y146.586 E947.5000 F6000
G1 X83.188 Y132.498 E948.0000 F6000
; --- LAYER 238 : Z=47.8038mm (Phi-Locked) ---
G1 Z47.8038 F9000
G1 X110.000 Y110.000 E948.5000 F6000
G1 X100.738 Y103.738 E949.0000 F6000
G1 X70.995 Y99.822 E949.5000 F6000
G1 X62.386 Y88.602 E950.0000 F6000
G1 X64.996 Y68.773 E950.5000 F6000
G1 X76.216 Y60.164 E951.0000 F6000
G1 X105.959 Y64.080 E951.5000 F6000
G1 X114.568 Y75.299 E952.0000 F6000
; --- LAYER 239 : Z=48.0085mm (Phi-Locked) ---
G1 Z48.0085 F9000
G1 X110.000 Y110.000 E952.5000 F6000
G1 X121.059 Y108.360 E953.0000 F6000
G1 X145.634 Y91.153 E953.5000 F6000
G1 X159.561 Y93.608 E954.0000 F6000
G1 X171.033 Y109.991 E954.5000 F6000
G1 X168.577 Y123.919 E955.0000 F6000
G1 X144.002 Y141.126 E955.5000 F6000
G1 X130.075 Y138.670 E956.0000 F6000
G91 ; Relative positioning
G1 E-2 F2700 ; Retract (Scott-Peucker Optimized)
G1 Z1 F3000 ; Lift
G28 X0 Y0 ; Present Part
M84 ; Disable Motors
; MANIFESTATION COMPLETE